{"advertising/totem/oilibya-11febf":{"name":"Oilibya","locationSet":{"include":["dz","eg","ly","ma","sd","tn","eh","io","bi","km","dj","er","et","tf","ke","mg","mw","mu","yt","mz","re","rw","sc","so","ss","ug","tz","zm","zw","ao","cm","cf","td","cg","cd","gq","ga","st","bw","sz","ls","na","za","bj","bf","cv","ci","gm","gh","gn","gw","lr","ml","mr","ne","ng","sn","sl","tg","sh","bd"]},"geometry":["point","line"],"matchScore":2,"terms":["oilibia","oilibiya","oilibya","oillibia","oilliby","oillibya","oillybia","oilybia","olibya","olybia","أويليبيا"],"tags":{"advertising":"totem","brand:wikidata":"Q7081491"},"addTags":{"advertising":"totem","brand":"Oilibya","brand:wikidata":"Q7081491","name:ar":"أويليبيا","name:en":"Oilibya"}},"amenity/fuel/oilibya-5288c9":{"name":"Oilibya","locationSet":{"include":["dz","eg","ly","ma","sd","tn","eh","io","bi","km","dj","er","et","tf","ke","mg","mw","mu","yt","mz","re","rw","sc","so","ss","ug","tz","zm","zw","ao","cm","cf","td","cg","cd","gq","ga","st","bw","sz","ls","na","za","bj","bf","cv","ci","gm","gh","gn","gw","lr","ml","mr","ne","ng","sn","sl","tg","sh","bd"]},"geometry":["point","area"],"matchScore":2,"terms":["oilibia","oilibiya","oilibya","oillibia","oilliby","oillibya","oillybia","oilybia","olibya","olybia","أويليبيا"],"fields":["name","brand","{amenity/fuel}"],"tags":{"amenity":"fuel","brand:wikidata":"Q7081491"},"addTags":{"amenity":"fuel","brand":"Oilibya","brand:wikidata":"Q7081491","name":"Oilibya","name:ar":"أويليبيا","name:en":"Oilibya"}},"shop/mobile_phone/airtel-62d34e":{"name":"Airtel","locationSet":{"include":["io","bi","km","dj","er","et","tf","ke","mg","mw","mu","yt","mz","re","rw","sc","so","ss","ug","tz","zm","zw","ao","cm","cf","td","cg","cd","gq","ga","st","bw","sz","ls","na","za","bj","bf","cv","ci","gm","gh","gn","gw","lr","ml","mr","ne","ng","sn","sl","tg","sh","in"]},"geometry":["point","area"],"matchScore":2,"terms":["airtel"],"tags":{"brand:wikidata":"Q854867","shop":"mobile_phone"},"addTags":{"brand":"Airtel","brand:wikidata":"Q854867","name":"Airtel","shop":"mobile_phone"}},"shop/supermarket/game-910aca":{"name":"Game","locationSet":{"include":["io","bi","km","dj","er","et","tf","ke","mg","mw","mu","yt","mz","re","rw","sc","so","ss","ug","tz","zm","zw","ao","cm","cf","td","cg","cd","gq","ga","st","bw","sz","ls","na","za","bj","bf","cv","ci","gm","gh","gn","gw","lr","ml","mr","ne","ng","sn","sl","tg","sh"]},"geometry":["point","area"],"matchScore":2,"terms":["game"],"tags":{"brand:wikidata":"Q126811048","shop":"supermarket"},"addTags":{"brand":"Game","brand:wikidata":"Q126811048","name":"Game","shop":"supermarket"}}}