{"amenity/atm/addikobank-bd7eed":{"name":"Addiko Bank","locationSet":{"include":["ba","hr","me","rs","si"]},"geometry":["point","vertex"],"matchScore":2,"terms":["addiko bank"],"tags":{"amenity":"atm","brand:wikidata":"Q27926559"},"addTags":{"amenity":"atm","brand":"Addiko Bank","brand:wikidata":"Q27926559","brand:wikipedia":"en:Addiko Bank","name":"Addiko Bank","operator":"Addiko Bank","operator:wikidata":"Q27926559","operator:wikipedia":"en:Addiko Bank"}},"amenity/atm/komercijalnabanka-afa18c":{"name":"Komercijalna banka","locationSet":{"include":["ba","me","rs"]},"geometry":["point","vertex"],"matchScore":2,"terms":["komercijalna banka"],"tags":{"amenity":"atm","brand:wikidata":"Q1536320"},"addTags":{"amenity":"atm","brand":"Komercijalna banka","brand:wikidata":"Q1536320","brand:wikipedia":"en:Komercijalna banka","name":"Komercijalna banka","operator":"Komercijalna banka","operator:wikidata":"Q1536320","operator:wikipedia":"en:Komercijalna banka"}},"amenity/bank/addikobank-975383":{"name":"Addiko Bank","locationSet":{"include":["ba","hr","me","rs","si"]},"geometry":["point","area"],"matchScore":2,"terms":["addiko bank"],"tags":{"amenity":"bank","brand:wikidata":"Q27926559"},"addTags":{"amenity":"bank","brand":"Addiko Bank","brand:wikidata":"Q27926559","brand:wikipedia":"en:Addiko Bank","name":"Addiko Bank"}},"amenity/bank/komercijalnabanka-0c399e":{"name":"Komercijalna banka","locationSet":{"include":["ba","me","rs"]},"geometry":["point","area"],"matchScore":2,"terms":["komercijalna banka"],"tags":{"amenity":"bank","brand:wikidata":"Q1536320"},"addTags":{"amenity":"bank","brand":"Komercijalna banka","brand:wikidata":"Q1536320","brand:wikipedia":"en:Komercijalna banka","name":"Komercijalna banka"}},"amenity/cafe/coffee_shop/cariboucoffee-d279cd":{"name":"Caribou Coffee","locationSet":{"include":["ba","tr","us"],"exclude":["cn"]},"geometry":["point","area"],"matchScore":2,"terms":["caribou coffee"],"reference":{"key":"cuisine","value":"coffee_shop"},"tags":{"amenity":"cafe","brand:wikidata":"Q5039494","cuisine":"coffee_shop"},"addTags":{"amenity":"cafe","brand":"Caribou Coffee","brand:wikidata":"Q5039494","brand:wikipedia":"en:Caribou Coffee","cuisine":"coffee_shop","name":"Caribou Coffee","takeaway":"yes"}},"amenity/cinema/cineplexx-8f1bb5":{"name":"Cineplexx","locationSet":{"include":["al","at","ba","gr","hr","it","me","mk","ro","rs","si","xk"]},"geometry":["point","area"],"matchScore":2,"terms":["cineplexx"],"fields":["name","brand","{amenity/cinema}"],"tags":{"amenity":"cinema","brand:wikidata":"Q873340"},"addTags":{"amenity":"cinema","brand":"Cineplexx","brand:wikidata":"Q873340","brand:wikipedia":"en:Cineplexx Cinemas","name":"Cineplexx"}},"amenity/cinema/cinestar-a7029a":{"name":"CineStar","locationSet":{"include":["ba","cz","de","hr","it","rs"]},"geometry":["point","area"],"matchScore":2,"terms":["cinestar"],"fields":["name","brand","{amenity/cinema}"],"tags":{"amenity":"cinema","brand:wikidata":"Q321889"},"addTags":{"amenity":"cinema","brand":"CineStar","brand:wikidata":"Q321889","brand:wikipedia":"de:Cinestar","name":"CineStar"}},"shop/bakery/mlinar-f94504":{"name":"Mlinar","locationSet":{"include":["ba","hr","sl"]},"geometry":["point","area"],"matchScore":2,"terms":["mlinar"],"tags":{"brand:wikidata":"Q62082464","shop":"bakery"},"addTags":{"brand":"Mlinar","brand:wikidata":"Q62082464","name":"Mlinar","shop":"bakery"}},"shop/chemist/dm-64e7ae":{"name":"dm","locationSet":{"include":["at","ba","bg","cz","de","hr","hu","it","mk","ro","rs","si","sk"]},"geometry":["point","area"],"matchScore":2,"terms":["dm","dm drogerie markt"],"tags":{"brand:wikidata":"Q266572","shop":"chemist"},"addTags":{"brand":"dm","brand:wikidata":"Q266572","brand:wikipedia":"en:Dm-drogerie markt","name":"dm","shop":"chemist"}},"shop/clothes/cropp-613e37":{"name":"Cropp","locationSet":{"include":["ba","bg","cz","ee","fi","hr","hu","kz","lt","lv","ro","rs","ru","si","sk","ua"]},"geometry":["point","area"],"matchScore":2,"terms":["cropp"],"tags":{"brand:wikidata":"Q9196793","shop":"clothes"},"addTags":{"brand":"Cropp","brand:wikidata":"Q9196793","brand:wikipedia":"pl:Cropp","name":"Cropp","shop":"clothes"}},"shop/convenience/konzum-442b6e":{"name":"Konzum (Balkans)","locationSet":{"include":["ba","hr","rs"]},"geometry":["point","area"],"matchScore":2,"terms":["konzum"],"tags":{"brand:wikidata":"Q518563","shop":"convenience"},"addTags":{"brand":"Konzum","brand:wikidata":"Q518563","brand:wikipedia":"hr:Konzum","name":"Konzum","shop":"convenience"}},"shop/convenience/mercator-eb6d99":{"name":"Mercator","locationSet":{"include":["ba","hr","me","mk","rs","si"]},"geometry":["point","area"],"matchScore":2,"terms":["mercator"],"tags":{"brand:wikidata":"Q738412","shop":"convenience"},"addTags":{"brand":"Mercator","brand:wikidata":"Q738412","brand:wikipedia":"en:Mercator (retail)","name":"Mercator","shop":"convenience"}},"shop/doityourself/obi-d5381e":{"name":"OBI","locationSet":{"include":["at","ba","ch","cz","de","hu","it","pl","ru","si","sk"]},"geometry":["point","area"],"matchScore":2,"terms":["obi"],"tags":{"brand:wikidata":"Q300518","shop":"doityourself"},"addTags":{"brand":"OBI","brand:wikidata":"Q300518","brand:wikipedia":"de:Obi (Baumarkt)","name":"OBI","shop":"doityourself"}},"shop/shoes/officeshoes-30afef":{"name":"Office Shoes","locationSet":{"include":["al","ba","cz","hr","hu","me","pl","ro","rs","si","sk"]},"geometry":["point","area"],"matchScore":2,"terms":["office shoes"],"tags":{"brand:wikidata":"Q93946123","shop":"shoes"},"addTags":{"brand":"Office Shoes","brand:wikidata":"Q93946123","name":"Office Shoes","shop":"shoes"}},"shop/supermarket/bingo-f320a3":{"name":"Bingo","locationSet":{"include":["ba"]},"geometry":["point","area"],"matchScore":2,"terms":["bingo"],"tags":{"brand:wikidata":"Q16842066","shop":"supermarket"},"addTags":{"brand":"Bingo","brand:wikidata":"Q16842066","brand:wikipedia":"bs:Bingo (kompanija)","name":"Bingo","shop":"supermarket"}},"shop/supermarket/konzum-0956c9":{"name":"Konzum (Balkans)","locationSet":{"include":["ba","hr","rs"]},"geometry":["point","area"],"matchScore":2,"terms":["konzum"],"tags":{"brand:wikidata":"Q518563","shop":"supermarket"},"addTags":{"brand":"Konzum","brand:wikidata":"Q518563","brand:wikipedia":"hr:Konzum","name":"Konzum","shop":"supermarket"}},"shop/supermarket/mercator-05bb56":{"name":"Mercator","locationSet":{"include":["ba","hr","me","rs","si"]},"geometry":["point","area"],"matchScore":2,"terms":["mercator"],"tags":{"brand:wikidata":"Q738412","shop":"supermarket"},"addTags":{"brand":"Mercator","brand:wikidata":"Q738412","brand:wikipedia":"en:Mercator (retail)","name":"Mercator","shop":"supermarket"}},"shop/toys/jumbo-f2bb45":{"name":"Jumbo","locationSet":{"include":["al","ba","cy","gr","md","me","mk","ro","rs","xk"]},"geometry":["point","area"],"matchScore":2,"terms":["jumbo"],"tags":{"brand:wikidata":"Q3562323","shop":"toys"},"addTags":{"brand":"Jumbo","brand:wikidata":"Q3562323","brand:wikipedia":"en:Jumbo S.A.","name":"Jumbo","shop":"toys"}},"amenity/post_box/hrvatskapostamostar-715a36":{"name":"Hrvatska pošta Mostar","locationSet":{"include":["ba"]},"geometry":["point","vertex"],"matchScore":2,"terms":["hrvatska pošta mostar"],"tags":{"amenity":"post_box","operator:wikidata":"Q5307025"},"addTags":{"amenity":"post_box","operator":"Hrvatska pošta Mostar","operator:wikidata":"Q5307025","operator:wikipedia":"bs:Hrvatska pošta Mostar"}},"amenity/post_box/postesrpske-715a36":{"name":"Pošte Srpske","locationSet":{"include":["ba"]},"geometry":["point","vertex"],"matchScore":2,"terms":["pošte srpske"],"tags":{"amenity":"post_box","operator:wikidata":"Q5245881"},"addTags":{"amenity":"post_box","operator":"Pošte Srpske","operator:wikidata":"Q5245881","operator:wikipedia":"bs:Pošte Srpske"}},"amenity/post_office/hrvatskapostamostar-736d07":{"name":"Hrvatska pošta Mostar","locationSet":{"include":["ba"]},"geometry":["point","area"],"matchScore":2,"terms":["hrvatska pošta mostar"],"fields":["name","operator","{amenity/post_office}"],"tags":{"amenity":"post_office","operator:wikidata":"Q5307025"},"addTags":{"amenity":"post_office","operator":"Hrvatska pošta Mostar","operator:wikidata":"Q5307025","operator:wikipedia":"bs:Hrvatska pošta Mostar"}},"amenity/post_office/postesrpske-736d07":{"name":"Pošte Srpske","locationSet":{"include":["ba"]},"geometry":["point","area"],"matchScore":2,"terms":["pošte srpske"],"fields":["name","operator","{amenity/post_office}"],"tags":{"amenity":"post_office","operator:wikidata":"Q5245881"},"addTags":{"amenity":"post_office","operator":"Pošte Srpske","operator:wikidata":"Q5245881","operator:wikipedia":"bs:Pošte Srpske"}},"power/generator/elektroprivredabosneihercegovine-a096ef":{"name":"Elektroprivreda Bosne i Hercegovine","locationSet":{"include":["ba"]},"geometry":["point","vertex","area"],"matchScore":2,"terms":["elektroprivreda bosne i hercegovine","epbih"],"tags":{"operator:wikidata":"Q3048615","power":"generator"},"addTags":{"operator":"Elektroprivreda Bosne i Hercegovine","operator:short":"EPBiH","operator:wikidata":"Q3048615","operator:wikipedia":"en:Elektroprivreda Bosne i Hercegovine","power":"generator"}},"power/substation/elektroprenosbih-e68224":{"name":"Elektroprenos BiH","locationSet":{"include":["ba"]},"geometry":["area","point"],"matchScore":2,"terms":["elektroprenos bih"],"tags":{"operator:wikidata":"Q3050657","power":"substation"},"addTags":{"operator":"Elektroprenos BiH","operator:wikidata":"Q3050657","operator:wikipedia":"sr:Електропренос Босне и Херцеговине","power":"substation"}},"power/transformer/elektroprenosbih-75bd62":{"name":"Elektroprenos BiH","locationSet":{"include":["ba"]},"geometry":["point","vertex"],"matchScore":2,"terms":["elektroprenos bih"],"tags":{"operator:wikidata":"Q3050657","power":"transformer"},"addTags":{"operator":"Elektroprenos BiH","operator:wikidata":"Q3050657","operator:wikipedia":"sr:Електропренос Босне и Херцеговине","power":"transformer"}}}