{"amenity/atm/addikobank-bd7eed":{"name":"Addiko Bank","locationSet":{"include":["ba","hr","me","rs","si"]},"geometry":["point","vertex"],"matchScore":2,"terms":["addiko bank"],"tags":{"amenity":"atm","brand:wikidata":"Q27926559"},"addTags":{"amenity":"atm","brand":"Addiko Bank","brand:wikidata":"Q27926559","brand:wikipedia":"en:Addiko Bank","name":"Addiko Bank","operator":"Addiko Bank","operator:wikidata":"Q27926559","operator:wikipedia":"en:Addiko Bank"}},"amenity/atm/erstebank-1343ca":{"name":"Erste Bank","locationSet":{"include":["at","hr","hu","rs"]},"geometry":["point","vertex"],"matchScore":2,"terms":["erste bank"],"tags":{"amenity":"atm","brand:wikidata":"Q696867"},"addTags":{"amenity":"atm","brand":"Erste Bank","brand:wikidata":"Q696867","brand:wikipedia":"de:Erste Bank","name":"Erste Bank","operator":"Erste Bank","operator:wikidata":"Q696867","operator:wikipedia":"de:Erste Bank"}},"amenity/atm/hrvatskapostanskabanka-4d8c03":{"name":"Hrvatska poštanska banka","locationSet":{"include":["hr"]},"geometry":["point","vertex"],"matchScore":2,"terms":["hrvatska poštanska banka"],"tags":{"amenity":"atm","brand:wikidata":"Q5923981"},"addTags":{"amenity":"atm","brand":"Hrvatska poštanska banka","brand:wikidata":"Q5923981","brand:wikipedia":"en:Hrvatska poštanska banka","name":"Hrvatska poštanska banka","operator":"Hrvatska poštanska banka","operator:wikidata":"Q5923981","operator:wikipedia":"en:Hrvatska poštanska banka"}},"amenity/atm/pbz-4d8c03":{"name":"PBZ","locationSet":{"include":["hr"]},"geometry":["point","vertex"],"matchScore":2,"terms":["pbz"],"tags":{"amenity":"atm","brand:wikidata":"Q7246343"},"addTags":{"amenity":"atm","brand":"PBZ","brand:wikidata":"Q7246343","brand:wikipedia":"en:Privredna banka Zagreb","name":"PBZ","operator":"PBZ","operator:wikidata":"Q7246343","operator:wikipedia":"en:Privredna banka Zagreb"}},"amenity/atm/zagrebackabanka-4d8c03":{"name":"Zagrebačka banka","locationSet":{"include":["hr"]},"geometry":["point","vertex"],"matchScore":2,"terms":["zagrebačka banka"],"tags":{"amenity":"atm","brand:wikidata":"Q140381"},"addTags":{"amenity":"atm","brand":"Zagrebačka banka","brand:wikidata":"Q140381","brand:wikipedia":"en:Zagrebačka banka","name":"Zagrebačka banka","operator":"Zagrebačka banka","operator:wikidata":"Q140381","operator:wikipedia":"en:Zagrebačka banka"}},"amenity/bank/addikobank-975383":{"name":"Addiko Bank","locationSet":{"include":["ba","hr","me","rs","si"]},"geometry":["point","area"],"matchScore":2,"terms":["addiko bank"],"tags":{"amenity":"bank","brand:wikidata":"Q27926559"},"addTags":{"amenity":"bank","brand":"Addiko Bank","brand:wikidata":"Q27926559","brand:wikipedia":"en:Addiko Bank","name":"Addiko Bank"}},"amenity/bank/erstebank-d01b30":{"name":"Erste Bank","locationSet":{"include":["at","hr","hu","rs"]},"geometry":["point","area"],"matchScore":2,"terms":["erste bank"],"tags":{"amenity":"bank","brand:wikidata":"Q696867"},"addTags":{"amenity":"bank","brand":"Erste Bank","brand:wikidata":"Q696867","brand:wikipedia":"de:Erste Bank","name":"Erste Bank"}},"amenity/bank/hrvatskapostanskabanka-6f3d3b":{"name":"Hrvatska poštanska banka","locationSet":{"include":["hr"]},"geometry":["point","area"],"matchScore":2,"terms":["hrvatska poštanska banka"],"tags":{"amenity":"bank","brand:wikidata":"Q5923981"},"addTags":{"amenity":"bank","brand":"Hrvatska poštanska banka","brand:wikidata":"Q5923981","brand:wikipedia":"en:Hrvatska poštanska banka","name":"Hrvatska poštanska banka"}},"amenity/bank/pbz-6f3d3b":{"name":"PBZ","locationSet":{"include":["hr"]},"geometry":["point","area"],"matchScore":2,"terms":["pbz"],"tags":{"amenity":"bank","brand:wikidata":"Q7246343"},"addTags":{"amenity":"bank","brand":"PBZ","brand:wikidata":"Q7246343","brand:wikipedia":"en:Privredna banka Zagreb","name":"PBZ"}},"amenity/bank/zagrebackabanka-6f3d3b":{"name":"Zagrebačka banka","locationSet":{"include":["hr"]},"geometry":["point","area"],"matchScore":2,"terms":["zagrebačka banka"],"tags":{"amenity":"bank","brand:wikidata":"Q140381"},"addTags":{"amenity":"bank","brand":"Zagrebačka banka","brand:wikidata":"Q140381","brand:wikipedia":"en:Zagrebačka banka","name":"Zagrebačka banka"}},"amenity/cafe/coffee_shop/cafefrei-b37b54":{"name":"Cafe Frei","locationSet":{"include":["ae","ch","fr","hr","hu","ro","sa","sk"]},"geometry":["point","area"],"matchScore":2,"terms":["cafe frei"],"reference":{"key":"cuisine","value":"coffee_shop"},"tags":{"amenity":"cafe","brand:wikidata":"Q105210995","cuisine":"coffee_shop"},"addTags":{"amenity":"cafe","brand":"Cafe Frei","brand:wikidata":"Q105210995","cuisine":"coffee_shop","name":"Cafe Frei","takeaway":"yes"}},"amenity/cinema/cineplexx-8f1bb5":{"name":"Cineplexx","locationSet":{"include":["al","at","ba","gr","hr","it","me","mk","ro","rs","si","xk"]},"geometry":["point","area"],"matchScore":2,"terms":["cineplexx"],"fields":["name","brand","{amenity/cinema}"],"tags":{"amenity":"cinema","brand:wikidata":"Q873340"},"addTags":{"amenity":"cinema","brand":"Cineplexx","brand:wikidata":"Q873340","brand:wikipedia":"en:Cineplexx Cinemas","name":"Cineplexx"}},"amenity/cinema/cinestar-a7029a":{"name":"CineStar","locationSet":{"include":["ba","cz","de","hr","it","rs"]},"geometry":["point","area"],"matchScore":2,"terms":["cinestar"],"fields":["name","brand","{amenity/cinema}"],"tags":{"amenity":"cinema","brand:wikidata":"Q321889"},"addTags":{"amenity":"cinema","brand":"CineStar","brand:wikidata":"Q321889","brand:wikipedia":"de:Cinestar","name":"CineStar"}},"amenity/fast_food/oakberryacaibowls-df46eb":{"name":"Oakberry Açaí bowls","locationSet":{"include":["ae","au","bh","br","ch","cl","co","de","es","gr","hr","il","mt","mx","pe","pt","py","sa","th","us"]},"geometry":["point","area"],"matchScore":2,"terms":["oakberry açaí bowls"],"tags":{"amenity":"fast_food","brand:wikidata":"Q104870840"},"addTags":{"amenity":"fast_food","brand":"Oakberry Açaí bowls","brand:wikidata":"Q104870840","cuisine":"açaí","name":"Oakberry Açaí bowls","takeaway":"yes"}},"amenity/fuel/as24-3463db":{"name":"AS 24","locationSet":{"include":["at","be","bg","cz","de","dk","es","fr","gb","ge","gr","hr","hu","ie","it","lt","lu","mk","nl","pl","pt","ro","rs","se","si","sk","ua"]},"geometry":["point","area"],"matchScore":2,"terms":["as 24"],"fields":["name","brand","{amenity/fuel}"],"tags":{"amenity":"fuel","brand:wikidata":"Q2819394"},"addTags":{"amenity":"fuel","brand":"AS 24","brand:wikidata":"Q2819394","brand:wikipedia":"fr:AS 24 (entreprise)","hgv":"only","name":"AS 24"}},"amenity/fuel/crodux-a8f5c5":{"name":"Crodux","locationSet":{"include":["hr"]},"geometry":["point","area"],"matchScore":2,"terms":["crodux"],"fields":["name","brand","{amenity/fuel}"],"tags":{"amenity":"fuel","brand:wikidata":"Q62274622"},"addTags":{"amenity":"fuel","brand":"Crodux","brand:wikidata":"Q62274622","name":"Crodux"}},"amenity/ice_cream/llaollao-dd9462":{"name":"Llaollao","locationSet":{"include":["au","ch","cl","co","ec","es","fr","gt","hr","id","iq","kw","ma","my","ph","pt","sa","sg","si","sv","us","vn"]},"geometry":["point","area"],"matchScore":2,"terms":["llaollao"],"tags":{"amenity":"ice_cream","brand:wikidata":"Q12163048"},"addTags":{"amenity":"ice_cream","brand":"Llaollao","brand:wikidata":"Q12163048","brand:wikipedia":"es:Llaollao","cuisine":"frozen_yogurt","name":"Llaollao"}},"amenity/parcel_locker/paket24-30ebd7":{"name":"Paket24","locationSet":{"include":["hr"]},"geometry":["point","vertex"],"matchScore":2,"terms":["hrvatska pošta","paket24","paketomat"],"reference":{"key":"amenity","value":"parcel_locker"},"tags":{"amenity":"parcel_locker","brand:wikidata":"Q110748166"},"addTags":{"alt_name":"Paketomat","amenity":"parcel_locker","brand":"Paket24","brand:wikidata":"Q110748166","name":"Paket24","operator":"Hrvatska pošta","operator:wikidata":"Q507289","operator:wikipedia":"hr:Hrvatska pošta","parcel_mail_in":"yes"}},"amenity/school/maplebear-89c128":{"name":"Maple Bear","locationSet":{"include":["ae","al","ar","au","bd","bg","br","ca","cn","gt","hk","hr","in","ke","kr","lk","ma","mx","my","np","om","pe","ph","py","ro","rs","sg","th","tk","ua","us","vn"]},"geometry":["area","point"],"matchScore":2,"terms":["maple bear"],"fields":["name","brand","{amenity/school}"],"tags":{"amenity":"school","brand:wikidata":"Q10324823"},"addTags":{"amenity":"school","brand":"Maple Bear","brand:wikidata":"Q10324823","brand:wikipedia":"pt:Maple Bear","name":"Maple Bear","operator:type":"private"}},"shop/bakery/fornetti-0c6f37":{"name":"Fornetti","locationSet":{"include":["bg","cz","hr","hu","md","pl","ro","sk","ua"]},"geometry":["point","area"],"matchScore":2,"terms":["fornetti"],"tags":{"brand:wikidata":"Q1003020","shop":"bakery"},"addTags":{"brand":"Fornetti","brand:wikidata":"Q1003020","brand:wikipedia":"hu:Fornetti","name":"Fornetti","shop":"bakery"}},"shop/bakery/mlinar-f94504":{"name":"Mlinar","locationSet":{"include":["ba","hr","sl"]},"geometry":["point","area"],"matchScore":2,"terms":["mlinar"],"tags":{"brand:wikidata":"Q62082464","shop":"bakery"},"addTags":{"brand":"Mlinar","brand:wikidata":"Q62082464","name":"Mlinar","shop":"bakery"}},"shop/bookmaker/fortuna-70887d":{"name":"Fortuna","locationSet":{"include":["cz","hr","pl","ro","sk"]},"geometry":["point","area"],"matchScore":2,"terms":["fortuna"],"tags":{"brand:wikidata":"Q25857973","shop":"bookmaker"},"addTags":{"brand":"Fortuna","brand:wikidata":"Q25857973","brand:wikipedia":"en:Fortuna Entertainment Group","name":"Fortuna","shop":"bookmaker"}},"shop/bookmaker/tipico-7054e9":{"name":"Tipico","locationSet":{"include":["at","co","de","gi","hr","mt"]},"geometry":["point","area"],"matchScore":2,"terms":["tipico"],"tags":{"brand:wikidata":"Q15851003","shop":"bookmaker"},"addTags":{"brand":"Tipico","brand:wikidata":"Q15851003","brand:wikipedia":"en:Tipico","name":"Tipico","shop":"bookmaker"}},"shop/chemist/bipa-07ba5a":{"name":"Bipa","locationSet":{"include":["at","hr"]},"geometry":["point","area"],"matchScore":2,"terms":["bipa"],"tags":{"brand:wikidata":"Q864933","shop":"chemist"},"addTags":{"brand":"Bipa","brand:wikidata":"Q864933","brand:wikipedia":"de:Bipa","name":"Bipa","shop":"chemist"}},"shop/chemist/dm-64e7ae":{"name":"dm","locationSet":{"include":["at","ba","bg","cz","de","hr","hu","it","mk","ro","rs","si","sk"]},"geometry":["point","area"],"matchScore":2,"terms":["dm","dm drogerie markt"],"tags":{"brand:wikidata":"Q266572","shop":"chemist"},"addTags":{"brand":"dm","brand:wikidata":"Q266572","brand:wikipedia":"en:Dm-drogerie markt","name":"dm","shop":"chemist"}},"shop/chemist/muller-7b8da2":{"name":"Müller","locationSet":{"include":["at","ch","de","es","hr","hu"]},"geometry":["point","area"],"matchScore":2,"terms":["drogeriemarkt müller","müller"],"tags":{"brand:wikidata":"Q1958759","shop":"chemist"},"addTags":{"brand":"Müller","brand:wikidata":"Q1958759","brand:wikipedia":"en:Müller (German trade company)","name":"Müller","shop":"chemist"}},"shop/clothes/cropp-613e37":{"name":"Cropp","locationSet":{"include":["ba","bg","cz","ee","fi","hr","hu","kz","lt","lv","ro","rs","ru","si","sk","ua"]},"geometry":["point","area"],"matchScore":2,"terms":["cropp"],"tags":{"brand:wikidata":"Q9196793","shop":"clothes"},"addTags":{"brand":"Cropp","brand:wikidata":"Q9196793","brand:wikipedia":"pl:Cropp","name":"Cropp","shop":"clothes"}},"shop/clothes/kik-97626d":{"name":"KiK","locationSet":{"include":["at","cz","de","hr","hu","it","nl","pl","ro","si","sk"]},"geometry":["point","area"],"matchScore":2,"terms":["kik"],"tags":{"brand:wikidata":"Q883965","shop":"clothes"},"addTags":{"brand":"KiK","brand:wikidata":"Q883965","brand:wikipedia":"de:KiK","name":"KiK","shop":"clothes"}},"shop/clothes/pepco-98e975":{"name":"Pepco","locationSet":{"include":["bg","cz","ee","hr","hu","it","lt","lv","pl","ro","rs","si","sk"]},"geometry":["point","area"],"matchScore":2,"terms":["pepco"],"tags":{"brand:wikidata":"Q11815580","shop":"clothes"},"addTags":{"brand":"Pepco","brand:wikidata":"Q11815580","brand:wikipedia":"pl:Pepco","name":"Pepco","shop":"clothes"}},"shop/clothes/soliver-618b05":{"name":"s.Oliver","locationSet":{"include":["at","be","de","fr","hr"]},"geometry":["point","area"],"matchScore":2,"terms":["s.oliver"],"tags":{"brand:wikidata":"Q265056","shop":"clothes"},"addTags":{"brand":"s.Oliver","brand:wikidata":"Q265056","brand:wikipedia":"en:S.Oliver","name":"s.Oliver","shop":"clothes"}},"shop/clothes/sisley-9d6d32":{"name":"Sisley","locationSet":{"include":["at","ch","de","hr","it","ru"]},"geometry":["point","area"],"matchScore":2,"terms":["sisley"],"tags":{"brand:wikidata":"Q12054325","shop":"clothes"},"addTags":{"brand":"Sisley","brand:wikidata":"Q12054325","brand:wikipedia":"cs:Sisley","name":"Sisley","shop":"clothes"}},"shop/confectionery/bearsandfriends-e5aed3":{"name":"Bears & Friends","locationSet":{"include":["at","cz","de","hk","hr","hu"]},"geometry":["point","area"],"matchScore":2,"terms":["bears & friends"],"tags":{"brand:wikidata":"Q99510345","shop":"confectionery"},"addTags":{"brand":"Bears & Friends","brand:wikidata":"Q99510345","name":"Bears & Friends","shop":"confectionery"}},"shop/convenience/bakmaz-5b00ff":{"name":"Bakmaz","locationSet":{"include":["hr"]},"geometry":["point","area"],"matchScore":2,"terms":["bakmaz"],"tags":{"brand:wikidata":"Q65132948","shop":"convenience"},"addTags":{"brand":"Bakmaz","brand:wikidata":"Q65132948","brand:wikipedia":"hr:Bakmaz","name":"Bakmaz","shop":"convenience"}},"shop/convenience/konzum-442b6e":{"name":"Konzum (Balkans)","locationSet":{"include":["ba","hr","rs"]},"geometry":["point","area"],"matchScore":2,"terms":["konzum"],"tags":{"brand:wikidata":"Q518563","shop":"convenience"},"addTags":{"brand":"Konzum","brand:wikidata":"Q518563","brand:wikipedia":"hr:Konzum","name":"Konzum","shop":"convenience"}},"shop/convenience/mercator-eb6d99":{"name":"Mercator","locationSet":{"include":["ba","hr","me","mk","rs","si"]},"geometry":["point","area"],"matchScore":2,"terms":["mercator"],"tags":{"brand:wikidata":"Q738412","shop":"convenience"},"addTags":{"brand":"Mercator","brand:wikidata":"Q738412","brand:wikipedia":"en:Mercator (retail)","name":"Mercator","shop":"convenience"}},"shop/convenience/studenac-5b00ff":{"name":"Studenac","locationSet":{"include":["hr"]},"geometry":["point","area"],"matchScore":2,"terms":["studenac"],"tags":{"brand:wikidata":"Q65156084","shop":"convenience"},"addTags":{"brand":"Studenac","brand:wikidata":"Q65156084","brand:wikipedia":"hr:Studenac","name":"Studenac","shop":"convenience"}},"shop/convenience/tommy-5b00ff":{"name":"Tommy","locationSet":{"include":["hr"]},"geometry":["point","area"],"matchScore":2,"terms":["tommy"],"tags":{"brand:wikidata":"Q12643718","shop":"convenience"},"addTags":{"brand":"Tommy","brand:wikidata":"Q12643718","brand:wikipedia":"hr:Tommy","name":"Tommy","shop":"convenience"}},"shop/dairy/veronika-26fd0f":{"name":"Veronika","locationSet":{"include":["hr"]},"geometry":["point","area"],"matchScore":2,"terms":["veronika"],"tags":{"brand:wikidata":"Q87399724","shop":"dairy"},"addTags":{"brand":"Veronika","brand:wikidata":"Q87399724","name":"Veronika","shop":"dairy"}},"shop/deli/vomfass-a3c745":{"name":"vomFASS","locationSet":{"include":["at","be","br","ca","ch","cz","de","dk","es","fr","gb","hk","hr","hu","il","it","jp","lv","mx","my","ph","sg","th","us"]},"geometry":["point","area"],"matchScore":2,"terms":["vomfass"],"tags":{"brand:wikidata":"Q2533008","shop":"deli"},"addTags":{"brand":"vomFASS","brand:wikidata":"Q2533008","brand:wikipedia":"de:Vom Fass","name":"vomFASS","shop":"deli"}},"shop/doityourself/bauhaus-6847b5":{"name":"Bauhaus","locationSet":{"include":["at","bg","ch","cz","de","dk","ee","es","fi","hr","hu","is","lu","nl","no","se","si","sk","tr"]},"geometry":["point","area"],"matchScore":2,"terms":["bauhaus"],"tags":{"brand:wikidata":"Q672043","shop":"doityourself"},"addTags":{"brand":"Bauhaus","brand:wikidata":"Q672043","brand:wikipedia":"en:Bauhaus (company)","name":"Bauhaus","shop":"doityourself"}},"shop/furniture/chateaudax-c96b56":{"name":"Chateau d'Ax","locationSet":{"include":["ao","be","ca","ch","cn","de","es","fx","gp","hk","hr","it","ma","mq","mt","mu","mz","pt","re","sg","si","tn","tw","us","vn"]},"geometry":["point","area"],"matchScore":2,"terms":["chateau d'ax"],"tags":{"brand:wikidata":"Q100249791","shop":"furniture"},"addTags":{"brand":"Chateau d'Ax","brand:wikidata":"Q100249791","name":"Chateau d'Ax","shop":"furniture"}},"shop/gift/alehop-be38fa":{"name":"ALE-HOP","locationSet":{"include":["es","hr","mx","pt"]},"geometry":["point","area"],"matchScore":2,"terms":["ale-hop"],"tags":{"brand:wikidata":"Q98456840","shop":"gift"},"addTags":{"brand":"ALE-HOP","brand:wikidata":"Q98456840","brand:wikipedia":"es:ALE-HOP","name":"ALE-HOP","shop":"gift"}},"shop/kiosk/tisak-51cd1e":{"name":"Tisak","locationSet":{"include":["hr"]},"geometry":["point","area"],"matchScore":2,"terms":["tisak"],"tags":{"brand:wikidata":"Q12643627","shop":"kiosk"},"addTags":{"brand":"Tisak","brand:wikidata":"Q12643627","brand:wikipedia":"hr:Tisak (tvrtka)","name":"Tisak","shop":"kiosk"}},"shop/kitchen/ixina-d089d8":{"name":"Ixina","locationSet":{"include":["ae","au","be","bf","bh","bj","ca","ci","cm","cn","cz","dz","ee","eg","fr","gh","hr","ke","kw","lu","ly","ma","mu","nl","pl","qa","ro","ru","sa","se","sn","tg","th","tn","vn"]},"geometry":["point","area"],"matchScore":2,"terms":["ixina"],"tags":{"brand:wikidata":"Q3156424","shop":"kitchen"},"addTags":{"brand":"Ixina","brand:wikidata":"Q3156424","brand:wikipedia":"fr:Ixina","name":"Ixina","shop":"kitchen"}},"shop/mobile_phone/a1-5dbae3":{"name":"A1","locationSet":{"include":["at","bg","by","hr","si"]},"geometry":["point","area"],"matchScore":2,"terms":["a1","velcom","velcom|a1","велком"],"tags":{"brand:wikidata":"Q688755","shop":"mobile_phone"},"addTags":{"brand":"A1","brand:wikidata":"Q688755","brand:wikipedia":"en:A1 Telekom Austria Group","name":"A1","shop":"mobile_phone"}},"shop/shoes/officeshoes-30afef":{"name":"Office Shoes","locationSet":{"include":["al","ba","cz","hr","hu","me","pl","ro","rs","si","sk"]},"geometry":["point","area"],"matchScore":2,"terms":["office shoes"],"tags":{"brand:wikidata":"Q93946123","shop":"shoes"},"addTags":{"brand":"Office Shoes","brand:wikidata":"Q93946123","name":"Office Shoes","shop":"shoes"}},"shop/sports/hervis-38a747":{"name":"Hervis","locationSet":{"include":["at","cz","de","hr","hu","ro","si"]},"geometry":["point","area"],"matchScore":2,"terms":["hervis","hervis sport","hervis sports"],"tags":{"brand:wikidata":"Q1614816","shop":"sports"},"addTags":{"brand":"Hervis","brand:wikidata":"Q1614816","brand:wikipedia":"de:Hervis","name":"Hervis","shop":"sports"}},"shop/supermarket/kaufland-c3ebf9":{"name":"Kaufland","locationSet":{"include":["bg","cz","de","hr","pl","ro","sk"]},"geometry":["point","area"],"matchScore":2,"terms":["kaufland"],"tags":{"brand:wikidata":"Q685967","shop":"supermarket"},"addTags":{"brand":"Kaufland","brand:wikidata":"Q685967","brand:wikipedia":"en:Kaufland","name":"Kaufland","shop":"supermarket"}},"shop/supermarket/konzum-0956c9":{"name":"Konzum (Balkans)","locationSet":{"include":["ba","hr","rs"]},"geometry":["point","area"],"matchScore":2,"terms":["konzum"],"tags":{"brand:wikidata":"Q518563","shop":"supermarket"},"addTags":{"brand":"Konzum","brand:wikidata":"Q518563","brand:wikipedia":"hr:Konzum","name":"Konzum","shop":"supermarket"}},"shop/supermarket/mercator-05bb56":{"name":"Mercator","locationSet":{"include":["ba","hr","me","rs","si"]},"geometry":["point","area"],"matchScore":2,"terms":["mercator"],"tags":{"brand:wikidata":"Q738412","shop":"supermarket"},"addTags":{"brand":"Mercator","brand:wikidata":"Q738412","brand:wikipedia":"en:Mercator (retail)","name":"Mercator","shop":"supermarket"}},"shop/supermarket/plodine-f279a1":{"name":"Plodine","locationSet":{"include":["hr"]},"geometry":["point","area"],"matchScore":2,"terms":["plodine"],"tags":{"brand:wikidata":"Q58040098","shop":"supermarket"},"addTags":{"brand":"Plodine","brand:wikidata":"Q58040098","brand:wikipedia":"hr:Plodine","name":"Plodine","shop":"supermarket"}},"shop/supermarket/tommy-f279a1":{"name":"Tommy","locationSet":{"include":["hr"]},"geometry":["point","area"],"matchScore":2,"terms":["tommy"],"tags":{"brand:wikidata":"Q12643718","shop":"supermarket"},"addTags":{"brand":"Tommy","brand:wikidata":"Q12643718","brand:wikipedia":"hr:Tommy","name":"Tommy","shop":"supermarket"}},"shop/telecommunication/a1-7cd52f":{"name":"A1","locationSet":{"include":["at","bg","by","hr","si"]},"geometry":["point","area"],"matchScore":2,"terms":["a1","velcom","velcom|a1","велком"],"tags":{"brand:wikidata":"Q688755","shop":"telecommunication"},"addTags":{"brand":"A1","brand:wikidata":"Q688755","brand:wikipedia":"en:A1 Telekom Austria Group","name":"A1","shop":"telecommunication"}},"shop/variety_store/tedi-588ea3":{"name":"TEDi","locationSet":{"include":["at","de","es","hr","it","si","sk"]},"geometry":["point","area"],"matchScore":2,"terms":["t\u20acdi","tedi"],"tags":{"brand:wikidata":"Q1364603","shop":"variety_store"},"addTags":{"brand":"TEDi","brand:wikidata":"Q1364603","brand:wikipedia":"de:TEDi","name":"TEDi","shop":"variety_store"}},"amenity/post_box/hrvatskaposta-006da0":{"name":"Hrvatska pošta","locationSet":{"include":["hr"]},"geometry":["point","vertex"],"matchScore":2,"terms":["hrvatska pošta"],"tags":{"amenity":"post_box","operator:wikidata":"Q507289"},"addTags":{"amenity":"post_box","operator":"Hrvatska pošta","operator:wikidata":"Q507289","operator:wikipedia":"hr:Hrvatska pošta"}},"amenity/post_office/hrvatskaposta-745f1e":{"name":"Hrvatska pošta","locationSet":{"include":["hr"]},"geometry":["point","area"],"matchScore":2,"terms":["hrvatska pošta"],"fields":["name","operator","{amenity/post_office}"],"tags":{"amenity":"post_office","operator:wikidata":"Q507289"},"addTags":{"amenity":"post_office","operator":"Hrvatska pošta","operator:wikidata":"Q507289","operator:wikipedia":"hr:Hrvatska pošta"}},"power/generator/koncar-0189d2":{"name":"Končar","locationSet":{"include":["hr"]},"geometry":["point","vertex","area"],"matchScore":2,"terms":["končar"],"tags":{"operator:wikidata":"Q1509011","power":"generator"},"addTags":{"operator":"Končar","operator:wikidata":"Q1509011","operator:wikipedia":"hr:Končar Elektroindustrija","power":"generator"}},"power/substation/hep-7b849a":{"name":"HEP","locationSet":{"include":["hr"]},"geometry":["area","point"],"matchScore":2,"terms":["hep","hep ods"],"tags":{"operator:wikidata":"Q13636760","power":"substation"},"addTags":{"operator":"HEP","operator:wikidata":"Q13636760","operator:wikipedia":"hr:Hrvatska elektroprivreda","power":"substation"}},"power/transformer/hep-c13ce2":{"name":"HEP","locationSet":{"include":["hr"]},"geometry":["point","vertex"],"matchScore":2,"terms":["hep","hep ods"],"tags":{"operator:wikidata":"Q13636760","power":"transformer"},"addTags":{"operator":"HEP","operator:wikidata":"Q13636760","operator:wikipedia":"hr:Hrvatska elektroprivreda","power":"transformer"}},"public_transport/platform/bus_point/zet-29f81c":{"name":"ZET","locationSet":{"include":["hr"]},"geometry":["point","vertex"],"matchScore":2,"terms":["zet"],"reference":{"key":"public_transport","value":"platform"},"tags":{"bus":"yes","network:wikidata":"Q136060","public_transport":"platform"},"addTags":{"bus":"yes","highway":"bus_stop","network":"ZET","network:wikidata":"Q136060","network:wikipedia":"hr:Zagrebački električni tramvaj","public_transport":"platform"}},"type/route/bus/zet-ca6934":{"name":"ZET","locationSet":{"include":["hr"]},"geometry":["relation"],"matchScore":2,"terms":["zet"],"reference":{"key":"route","value":"bus"},"tags":{"network:wikidata":"Q136060","route":"bus","type":"route"},"addTags":{"network":"ZET","network:wikidata":"Q136060","network:wikipedia":"hr:Zagrebački električni tramvaj","route":"bus","type":"route"}},"type/route/tram/zet-3031a2":{"name":"ZET","locationSet":{"include":["hr"]},"geometry":["relation"],"matchScore":2,"terms":["zet"],"reference":{"key":"route","value":"tram"},"tags":{"network:wikidata":"Q136060","route":"tram","type":"route"},"addTags":{"network":"ZET","network:wikidata":"Q136060","network:wikipedia":"hr:Zagrebački električni tramvaj","route":"tram","type":"route"}}}