{"amenity/atm/lloydsbank-0a10e7":{"name":"Lloyds Bank","locationSet":{"include":["gb","im"]},"geometry":["point","vertex"],"matchScore":2,"terms":["lloyds","lloyds bank","lloyds tsb"],"tags":{"amenity":"atm","brand:wikidata":"Q1152847"},"addTags":{"amenity":"atm","brand":"Lloyds Bank","brand:wikidata":"Q1152847","brand:wikipedia":"en:Lloyds Bank","name":"Lloyds Bank","operator":"Lloyds Bank","operator:wikidata":"Q1152847","operator:wikipedia":"en:Lloyds Bank"}},"amenity/bank/lloydsbank-a49192":{"name":"Lloyds Bank","locationSet":{"include":["gb","im"]},"geometry":["point","area"],"matchScore":2,"terms":["lloyds","lloyds bank","lloyds tsb"],"tags":{"amenity":"bank","brand:wikidata":"Q1152847"},"addTags":{"amenity":"bank","brand":"Lloyds Bank","brand:wikidata":"Q1152847","brand:wikipedia":"en:Lloyds Bank","name":"Lloyds Bank"}},"amenity/pharmacy/lloydspharmacy-ab6db1":{"name":"Lloyds Pharmacy","locationSet":{"include":["be","gb","ie","im"]},"geometry":["point","area"],"matchScore":2,"terms":["lloyds","lloyds pharmacy"],"reference":{"key":"amenity","value":"pharmacy"},"tags":{"amenity":"pharmacy","brand:wikidata":"Q6662870"},"addTags":{"amenity":"pharmacy","brand":"Lloyds Pharmacy","brand:wikidata":"Q6662870","brand:wikipedia":"en:LloydsPharmacy","healthcare":"pharmacy","name":"Lloyds Pharmacy"}},"shop/charity/britishredcross-8c30a6":{"name":"British Red Cross","locationSet":{"include":["gb","gg","im"]},"geometry":["point","area"],"matchScore":2,"terms":["british red cross"],"tags":{"brand:wikidata":"Q4970966","shop":"charity"},"addTags":{"brand":"British Red Cross","brand:wikidata":"Q4970966","brand:wikipedia":"en:British Red Cross","name":"British Red Cross","shop":"charity"}},"shop/charity/oxfam-70fc14":{"name":"Oxfam","locationSet":{"include":["be","de","gb","ie","im"]},"geometry":["point","area"],"matchScore":2,"terms":["oxfam"],"tags":{"brand:wikidata":"Q267941","shop":"charity"},"addTags":{"brand":"Oxfam","brand:wikidata":"Q267941","brand:wikipedia":"en:Oxfam","name":"Oxfam","shop":"charity"}},"shop/clothes/dorothyperkins-907b92":{"name":"Dorothy Perkins","locationSet":{"include":["gb","gg","ie","im"]},"geometry":["point","area"],"matchScore":2,"terms":["dorothy perkins"],"tags":{"brand:wikidata":"Q5298588","shop":"clothes"},"addTags":{"brand":"Dorothy Perkins","brand:wikidata":"Q5298588","brand:wikipedia":"en:Dorothy Perkins","name":"Dorothy Perkins","shop":"clothes"}},"shop/clothes/riverisland-a754e7":{"name":"River Island","locationSet":{"include":["gb","ie","im","nl","pl"]},"geometry":["point","area"],"matchScore":2,"terms":["river island"],"tags":{"brand:wikidata":"Q2670328","shop":"clothes"},"addTags":{"brand":"River Island","brand:wikidata":"Q2670328","brand:wikipedia":"en:River Island","name":"River Island","shop":"clothes"}},"shop/gift/cardfactory-472ba1":{"name":"Card Factory","locationSet":{"include":["gb","im"]},"geometry":["point","area"],"matchScore":2,"terms":["card factory"],"tags":{"brand:wikidata":"Q5038192","shop":"gift"},"addTags":{"brand":"Card Factory","brand:wikidata":"Q5038192","brand:wikipedia":"en:Card Factory","name":"Card Factory","shop":"gift"}},"shop/supermarket/shoprite-46096d":{"name":"Shoprite (Isle of Man)","locationSet":{"include":["im"]},"geometry":["point","area"],"matchScore":2,"terms":["shoprite"],"tags":{"brand:wikidata":"Q7501242","shop":"supermarket"},"addTags":{"brand":"Shoprite","brand:wikidata":"Q7501242","brand:wikipedia":"en:Shoprite (Isle of Man)","name":"Shoprite","shop":"supermarket"}}}