{"amenity/atm/danskebank-a2bade":{"name":"Danske Bank","locationSet":{"include":["dk","fi","gb","lt","no","se"]},"geometry":["point","vertex"],"matchScore":2,"terms":["danske bank"],"tags":{"amenity":"atm","brand:wikidata":"Q1636974"},"addTags":{"amenity":"atm","brand":"Danske Bank","brand:wikidata":"Q1636974","brand:wikipedia":"en:Danske Bank","name":"Danske Bank","operator":"Danske Bank","operator:wikidata":"Q1636974","operator:wikipedia":"en:Danske Bank"}},"amenity/atm/seb-7527a2":{"name":"SEB","locationSet":{"include":["de","ee","lt","lv","se"]},"geometry":["point","vertex"],"matchScore":2,"terms":["seb"],"tags":{"amenity":"atm","brand:wikidata":"Q975655"},"addTags":{"amenity":"atm","brand":"SEB","brand:wikidata":"Q975655","brand:wikipedia":"en:SEB Group","name":"SEB","operator":"SEB","operator:wikidata":"Q975655","operator:wikipedia":"en:SEB Group"}},"amenity/atm/swedbank-ab2e60":{"name":"Swedbank","locationSet":{"include":["ee","lt","lv","se"]},"geometry":["point","vertex"],"matchScore":2,"terms":["swedbank"],"tags":{"amenity":"atm","brand:wikidata":"Q1145493"},"addTags":{"amenity":"atm","brand":"Swedbank","brand:wikidata":"Q1145493","brand:wikipedia":"en:Swedbank","name":"Swedbank","operator":"Swedbank","operator:wikidata":"Q1145493","operator:wikipedia":"en:Swedbank"}},"amenity/bank/danskebank-c75d31":{"name":"Danske Bank","locationSet":{"include":["dk","fi","gb","lt","no","se"]},"geometry":["point","area"],"matchScore":2,"terms":["danske bank"],"tags":{"amenity":"bank","brand:wikidata":"Q1636974"},"addTags":{"amenity":"bank","brand":"Danske Bank","brand:wikidata":"Q1636974","brand:wikipedia":"en:Danske Bank","name":"Danske Bank"}},"amenity/bank/seb-e3cf16":{"name":"SEB","locationSet":{"include":["de","ee","lt","lv","se"]},"geometry":["point","area"],"matchScore":2,"terms":["seb"],"tags":{"amenity":"bank","brand:wikidata":"Q975655"},"addTags":{"amenity":"bank","brand":"SEB","brand:wikidata":"Q975655","brand:wikipedia":"en:SEB Group","name":"SEB"}},"amenity/bank/swedbank-2cd0b2":{"name":"Swedbank","locationSet":{"include":["ee","lt","lv","se"]},"geometry":["point","area"],"matchScore":2,"terms":["swedbank"],"tags":{"amenity":"bank","brand:wikidata":"Q1145493"},"addTags":{"amenity":"bank","brand":"Swedbank","brand:wikidata":"Q1145493","brand:wikipedia":"en:Swedbank","name":"Swedbank"}},"amenity/casino/topsport-c593f4":{"name":"Topsport","locationSet":{"include":["lt"]},"geometry":["point","area"],"matchScore":2,"terms":["topsport"],"tags":{"amenity":"casino","brand:wikidata":"Q105343094"},"addTags":{"amenity":"casino","brand":"Topsport","brand:wikidata":"Q105343094","name":"Topsport"}},"amenity/cinema/multikino-2d7744":{"name":"Multikino","locationSet":{"include":["lt","lv","pl"]},"geometry":["point","area"],"matchScore":2,"terms":["multikino","vue cinemas"],"fields":["name","brand","{amenity/cinema}"],"tags":{"amenity":"cinema","brand:wikidata":"Q1144802"},"addTags":{"amenity":"cinema","brand":"Multikino","brand:wikidata":"Q1144802","brand:wikipedia":"pl:Multikino","name":"Multikino","operator":"Vue Cinemas"}},"amenity/fuel/amic-4797a1":{"name":"Amic","locationSet":{"include":["at","lt","lv","pl","ua"]},"geometry":["point","area"],"matchScore":2,"terms":["amic","amic energy"],"fields":["name","brand","{amenity/fuel}"],"tags":{"amenity":"fuel","brand:wikidata":"Q96047373"},"addTags":{"amenity":"fuel","brand":"Amic","brand:wikidata":"Q96047373","brand:wikipedia":"pl:Amic Energy","name":"Amic"}},"amenity/fuel/as24-3463db":{"name":"AS 24","locationSet":{"include":["at","be","bg","cz","de","dk","es","fr","gb","ge","gr","hr","hu","ie","it","lt","lu","mk","nl","pl","pt","ro","rs","se","si","sk","ua"]},"geometry":["point","area"],"matchScore":2,"terms":["as 24"],"fields":["name","brand","{amenity/fuel}"],"tags":{"amenity":"fuel","brand:wikidata":"Q2819394"},"addTags":{"amenity":"fuel","brand":"AS 24","brand:wikidata":"Q2819394","brand:wikipedia":"fr:AS 24 (entreprise)","hgv":"only","name":"AS 24"}},"amenity/fuel/balticpetroleum-d665db":{"name":"Baltic Petroleum","locationSet":{"include":["lt"]},"geometry":["point","area"],"matchScore":2,"terms":["baltic petroleum"],"fields":["name","brand","{amenity/fuel}"],"tags":{"amenity":"fuel","brand:wikidata":"Q96591447"},"addTags":{"amenity":"fuel","brand":"Baltic Petroleum","brand:wikidata":"Q96591447","name":"Baltic Petroleum"}},"amenity/fuel/orlen-66fb29":{"name":"Orlen","locationSet":{"include":["lt","pl"]},"geometry":["point","area"],"matchScore":2,"terms":["orlen"],"fields":["name","brand","{amenity/fuel}"],"tags":{"amenity":"fuel","brand:wikidata":"Q971649"},"addTags":{"amenity":"fuel","brand":"Orlen","brand:wikidata":"Q971649","brand:wikipedia":"en:PKN Orlen","name":"Orlen"}},"amenity/fuel/viada-86cad0":{"name":"Viada","locationSet":{"include":["lt","lv"]},"geometry":["point","area"],"matchScore":2,"terms":["viada"],"fields":["name","brand","{amenity/fuel}"],"tags":{"amenity":"fuel","brand:wikidata":"Q12663942"},"addTags":{"amenity":"fuel","brand":"Viada","brand:wikidata":"Q12663942","brand:wikipedia":"en:Lukoil Baltija","name":"Viada"}},"amenity/pharmacy/benu-1cd44c":{"name":"Benu","locationSet":{"include":["ch","cz","ee","hu","lt","lv","me","nl","rs","sk"]},"geometry":["point","area"],"matchScore":2,"terms":["benu","benu aptieka","benu vaistinė"],"reference":{"key":"amenity","value":"pharmacy"},"tags":{"amenity":"pharmacy","brand:wikidata":"Q62562792"},"addTags":{"amenity":"pharmacy","brand":"Benu","brand:wikidata":"Q62562792","healthcare":"pharmacy","name":"Benu"}},"amenity/pharmacy/camelia-503e9a":{"name":"Camelia","locationSet":{"include":["lt"]},"geometry":["point","area"],"matchScore":2,"terms":["camelia"],"reference":{"key":"amenity","value":"pharmacy"},"tags":{"amenity":"pharmacy","brand:wikidata":"Q15867413"},"addTags":{"amenity":"pharmacy","brand":"Camelia","brand:wikidata":"Q15867413","brand:wikipedia":"lt:Nemuno vaistinė","healthcare":"pharmacy","name":"Camelia"}},"amenity/pharmacy/eurovaistine-503e9a":{"name":"Eurovaistinė","locationSet":{"include":["lt"]},"geometry":["point","area"],"matchScore":2,"terms":["eurovaistinė"],"reference":{"key":"amenity","value":"pharmacy"},"tags":{"amenity":"pharmacy","brand:wikidata":"Q267205"},"addTags":{"amenity":"pharmacy","brand":"Eurovaistinė","brand:wikidata":"Q267205","brand:wikipedia":"en:Euroapotheca","healthcare":"pharmacy","name":"Eurovaistinė"}},"amenity/pharmacy/gintarinevaistine-503e9a":{"name":"Gintarinė vaistinė","locationSet":{"include":["lt"]},"geometry":["point","area"],"matchScore":2,"terms":["gintarinė vaistinė"],"reference":{"key":"amenity","value":"pharmacy"},"tags":{"amenity":"pharmacy","brand:wikidata":"Q15857801"},"addTags":{"amenity":"pharmacy","brand":"Gintarinė vaistinė","brand:wikidata":"Q15857801","brand:wikipedia":"lt:Gintarinė vaistinė","healthcare":"pharmacy","name":"Gintarinė vaistinė"}},"shop/chemist/drogas-1a360a":{"name":"Drogas","locationSet":{"include":["ee","lt","lv"]},"geometry":["point","area"],"matchScore":2,"terms":["drogas"],"tags":{"brand:wikidata":"Q15806753","shop":"chemist"},"addTags":{"brand":"Drogas","brand:wikidata":"Q15806753","brand:wikipedia":"de:Drogas","name":"Drogas","shop":"chemist"}},"shop/clothes/coccodrillo-571709":{"name":"Coccodrillo","locationSet":{"include":["at","bg","by","cz","de","ee","fi","hu","lt","lv","me","pl","ro","rs","ru","sk","ua"]},"geometry":["point","area"],"matchScore":2,"terms":["coccodrillo"],"tags":{"brand:wikidata":"Q9195224","shop":"clothes"},"addTags":{"brand":"Coccodrillo","brand:wikidata":"Q9195224","brand:wikipedia":"pl:Coccodrillo","clothes":"children","name":"Coccodrillo","shop":"clothes"}},"shop/clothes/cropp-613e37":{"name":"Cropp","locationSet":{"include":["ba","bg","cz","ee","fi","hr","hu","kz","lt","lv","ro","rs","ru","si","sk","ua"]},"geometry":["point","area"],"matchScore":2,"terms":["cropp"],"tags":{"brand:wikidata":"Q9196793","shop":"clothes"},"addTags":{"brand":"Cropp","brand:wikidata":"Q9196793","brand:wikipedia":"pl:Cropp","name":"Cropp","shop":"clothes"}},"shop/clothes/pepco-98e975":{"name":"Pepco","locationSet":{"include":["bg","cz","ee","hr","hu","it","lt","lv","pl","ro","rs","si","sk"]},"geometry":["point","area"],"matchScore":2,"terms":["pepco"],"tags":{"brand:wikidata":"Q11815580","shop":"clothes"},"addTags":{"brand":"Pepco","brand:wikidata":"Q11815580","brand:wikipedia":"pl:Pepco","name":"Pepco","shop":"clothes"}},"shop/convenience/aibe-64a6c9":{"name":"Aibė","locationSet":{"include":["lt"]},"geometry":["point","area"],"matchScore":2,"terms":["aibė"],"tags":{"brand:wikidata":"Q1022952","shop":"convenience"},"addTags":{"brand":"Aibė","brand:wikidata":"Q1022952","brand:wikipedia":"de:Aibė","name":"Aibė","shop":"convenience"}},"shop/kiosk/lietuvosspauda-34adb3":{"name":"Lietuvos spauda","locationSet":{"include":["lt"]},"geometry":["point","area"],"matchScore":2,"terms":["lietuvos spauda"],"tags":{"brand:wikidata":"Q6514414","shop":"kiosk"},"addTags":{"brand":"Lietuvos spauda","brand:wikidata":"Q6514414","brand:wikipedia":"lt:Lietuvos spauda","name":"Lietuvos spauda","shop":"kiosk"}},"shop/kiosk/narvesen-a42ea8":{"name":"Narvesen","locationSet":{"include":["lt","lv","no"]},"geometry":["point","area"],"matchScore":2,"terms":["narvesen"],"tags":{"brand:wikidata":"Q6514414","shop":"kiosk"},"addTags":{"brand":"Narvesen","brand:wikidata":"Q6514414","brand:wikipedia":"en:Narvesen","name":"Narvesen","shop":"kiosk"}},"shop/mobile_phone/bite-cc5c6f":{"name":"Bitė","locationSet":{"include":["lt"]},"geometry":["point","area"],"matchScore":2,"terms":["bitė"],"tags":{"brand:wikidata":"Q796010","shop":"mobile_phone"},"addTags":{"brand":"Bitė","brand:wikidata":"Q796010","brand:wikipedia":"lt:Bitės grupė","name":"Bitė","shop":"mobile_phone"}},"shop/mobile_phone/telia-856553":{"name":"Telia","locationSet":{"include":["dk","fi","lt","no","se"]},"geometry":["point","area"],"matchScore":2,"terms":["telia"],"fields":["name","brand","{shop/mobile_phone}"],"tags":{"brand:wikidata":"Q862303","shop":"mobile_phone"},"addTags":{"brand":"Telia","brand:wikidata":"Q862303","brand:wikipedia":"en:Telia Company","name":"Telia","shop":"mobile_phone"}},"shop/optician/fielmann-f003f4":{"name":"fielmann","locationSet":{"include":["at","by","ch","de","it","lt","lu","lv","nl","pl","ru","ua"]},"geometry":["point","area"],"matchScore":2,"terms":["fielmann"],"tags":{"brand:wikidata":"Q457822","shop":"optician"},"addTags":{"brand":"Fielmann","brand:wikidata":"Q457822","brand:wikipedia":"de:Fielmann","name":"Fielmann","shop":"optician"}},"shop/shoes/sizeer-a67893":{"name":"Sizeer","locationSet":{"include":["at","cz","de","hu","lt","pl","ro","sk"]},"geometry":["point","area"],"matchScore":2,"terms":["sizeer"],"tags":{"brand:wikidata":"Q93982889","shop":"shoes"},"addTags":{"brand":"Sizeer","brand:wikidata":"Q93982889","name":"Sizeer","shop":"shoes"}},"shop/sports/4f-5624eb":{"name":"4F","locationSet":{"include":["cz","de","lt","lv","ro","ru","sk"]},"geometry":["point","area"],"matchScore":2,"terms":["4f"],"tags":{"brand:wikidata":"Q16525801","shop":"sports"},"addTags":{"brand":"4F","brand:wikidata":"Q16525801","brand:wikipedia":"en:4F (company)","name":"4F","shop":"sports"}},"shop/supermarket/iki-dfbc25":{"name":"IKI","locationSet":{"include":["lt"]},"geometry":["point","area"],"matchScore":2,"terms":["iki","palink"],"tags":{"brand:wikidata":"Q1653981","shop":"supermarket"},"addTags":{"brand":"IKI","brand:wikidata":"Q1653981","brand:wikipedia":"lt:IKI (parduotuvių tinklas)","name":"IKI","operator":"Palink","shop":"supermarket"}},"shop/supermarket/maximax-45f6bc":{"name":"Maxima X","locationSet":{"include":["ee","lt","lv"]},"geometry":["point","area"],"matchScore":2,"terms":["maxima x"],"tags":{"brand:wikidata":"Q1881222","shop":"supermarket"},"addTags":{"brand":"Maxima X","brand:wikidata":"Q1881222","brand:wikipedia":"en:Maxima Group","name":"Maxima X","shop":"supermarket"}},"shop/supermarket/maximaxx-48a198":{"name":"Maxima XX","locationSet":{"include":["ee","lt","lv","pl"]},"geometry":["point","area"],"matchScore":2,"terms":["maxima xx"],"tags":{"brand:wikidata":"Q1881222","shop":"supermarket"},"addTags":{"brand":"Maxima XX","brand:wikidata":"Q1881222","brand:wikipedia":"en:Maxima Group","name":"Maxima XX","shop":"supermarket"}},"shop/supermarket/maximaxxx-48a198":{"name":"Maxima XXX","locationSet":{"include":["ee","lt","lv","pl"]},"geometry":["point","area"],"matchScore":2,"terms":["maxima","maxima xxx"],"tags":{"brand:wikidata":"Q1881222","shop":"supermarket"},"addTags":{"brand":"Maxima XXX","brand:wikidata":"Q1881222","brand:wikipedia":"en:Maxima Group","name":"Maxima XXX","shop":"supermarket"}},"shop/supermarket/norfaxl-dfbc25":{"name":"Norfa XL","locationSet":{"include":["lt"]},"geometry":["point","area"],"matchScore":2,"terms":["norfa xl"],"tags":{"brand:wikidata":"Q1998983","shop":"supermarket"},"addTags":{"brand":"Norfa XL","brand:wikidata":"Q1998983","brand:wikipedia":"lt:Norfa","name":"Norfa XL","shop":"supermarket"}},"shop/supermarket/rimi-45f6bc":{"name":"Rimi","locationSet":{"include":["ee","lt","lv"]},"geometry":["point","area"],"matchScore":2,"terms":["rimi"],"tags":{"brand:wikidata":"Q3741108","shop":"supermarket"},"addTags":{"brand":"Rimi","brand:wikidata":"Q3741108","brand:wikipedia":"en:Rimi Baltic","name":"Rimi","shop":"supermarket"}},"shop/tool_hire/loxam-33fef8":{"name":"Loxam","locationSet":{"include":["ae","be","bh","br","ch","co","cz","de","dk","ee","es","fi","fr","gb","ie","it","kw","lt","lu","lv","ma","nl","no","om","pl","pt","qa","sa","se","sk"]},"geometry":["point","area"],"matchScore":2,"terms":["loxam"],"tags":{"brand:wikidata":"Q3264407","shop":"tool_hire"},"addTags":{"brand":"Loxam","brand:wikidata":"Q3264407","brand:wikipedia":"fr:Loxam","name":"Loxam","shop":"tool_hire"}},"shop/variety_store/flyingtigercopenhagen-37d726":{"name":"Flying Tiger Copenhagen","locationSet":{"include":["at","be","ch","cy","cz","de","dk","ee","es","fi","fr","gb","gr","hu","ie","is","it","jp","kr","lt","lv","mt","nl","no","pl","pt","se","sk"]},"geometry":["point","area"],"matchScore":2,"terms":["flying tiger","flying tiger copenhagen","tgr","tiger"],"tags":{"brand:wikidata":"Q2786319","shop":"variety_store"},"addTags":{"brand":"Flying Tiger Copenhagen","brand:wikidata":"Q2786319","brand:wikipedia":"en:Flying Tiger Copenhagen","name":"Flying Tiger Copenhagen","shop":"variety_store","short_name":"Flying Tiger"}},"amenity/post_box/lietuvospastas-06c38d":{"name":"Lietuvos paštas","locationSet":{"include":["lt"]},"geometry":["point","vertex"],"matchScore":2,"terms":["lietuvos paštas"],"tags":{"amenity":"post_box","operator:wikidata":"Q175964"},"addTags":{"amenity":"post_box","operator":"Lietuvos paštas","operator:wikidata":"Q175964","operator:wikipedia":"lt:Lietuvos paštas"}},"amenity/post_office/lietuvospastas-738531":{"name":"Lietuvos paštas","locationSet":{"include":["lt"]},"geometry":["point","area"],"matchScore":2,"terms":["lietuvos paštas"],"fields":["name","operator","{amenity/post_office}"],"tags":{"amenity":"post_office","operator:wikidata":"Q175964"},"addTags":{"amenity":"post_office","operator":"Lietuvos paštas","operator:wikidata":"Q175964","operator:wikipedia":"lt:Lietuvos paštas"}},"power/substation/eso-d3558e":{"name":"ESO","locationSet":{"include":["lt"]},"geometry":["area","point"],"matchScore":2,"terms":["eso"],"tags":{"operator:wikidata":"Q22691779","power":"substation"},"addTags":{"operator":"ESO","operator:wikidata":"Q22691779","operator:wikipedia":"lt:Energijos skirstymo operatorius","power":"substation"}},"power/transformer/eso-a40007":{"name":"ESO","locationSet":{"include":["lt"]},"geometry":["point","vertex"],"matchScore":2,"terms":["eso"],"tags":{"operator:wikidata":"Q22691779","power":"transformer"},"addTags":{"operator":"ESO","operator:wikidata":"Q22691779","operator:wikipedia":"lt:Energijos skirstymo operatorius","power":"transformer"}},"type/route/trolleybus/vilniausmiestosavivaldybe-b0cd15":{"name":"Vilniaus miesto savivaldybė","locationSet":{"include":["lt"]},"geometry":["relation"],"matchScore":2,"terms":["vilniaus miesto savivaldybė"],"reference":{"key":"route","value":"trolleybus"},"tags":{"network:wikidata":"Q1424990","route":"trolleybus","type":"route"},"addTags":{"network":"Vilniaus miesto savivaldybė","network:wikidata":"Q1424990","network:wikipedia":"lt:UAB Vilniaus viešasis transportas","route":"trolleybus","type":"route"}}}