{"amenity/atm/addikobank-bd7eed":{"name":"Addiko Bank","locationSet":{"include":["ba","hr","me","rs","si"]},"geometry":["point","vertex"],"matchScore":2,"terms":["addiko bank"],"tags":{"amenity":"atm","brand:wikidata":"Q27926559"},"addTags":{"amenity":"atm","brand":"Addiko Bank","brand:wikidata":"Q27926559","brand:wikipedia":"en:Addiko Bank","name":"Addiko Bank","operator":"Addiko Bank","operator:wikidata":"Q27926559","operator:wikipedia":"en:Addiko Bank"}},"amenity/atm/nlb-c633d2":{"name":"NLB","locationSet":{"include":["si"]},"geometry":["point","vertex"],"matchScore":2,"terms":["nlb"],"tags":{"amenity":"atm","brand:wikidata":"Q1481509"},"addTags":{"amenity":"atm","brand":"NLB","brand:wikidata":"Q1481509","brand:wikipedia":"en:NLB Group","name":"NLB","operator":"NLB","operator:wikidata":"Q1481509","operator:wikipedia":"en:NLB Group"}},"amenity/bank/addikobank-975383":{"name":"Addiko Bank","locationSet":{"include":["ba","hr","me","rs","si"]},"geometry":["point","area"],"matchScore":2,"terms":["addiko bank"],"tags":{"amenity":"bank","brand:wikidata":"Q27926559"},"addTags":{"amenity":"bank","brand":"Addiko Bank","brand:wikidata":"Q27926559","brand:wikipedia":"en:Addiko Bank","name":"Addiko Bank"}},"amenity/bank/nlb-30392e":{"name":"NLB","locationSet":{"include":["si"]},"geometry":["point","area"],"matchScore":2,"terms":["nlb"],"tags":{"amenity":"bank","brand:wikidata":"Q1481509"},"addTags":{"amenity":"bank","brand":"NLB","brand:wikidata":"Q1481509","brand:wikipedia":"en:NLB Group","name":"NLB"}},"amenity/bicycle_rental/bicikelj-3dc1ae":{"name":"BicikeLJ","locationSet":{"include":["si"]},"geometry":["point","vertex","area"],"matchScore":2,"terms":["bicikelj","mol"],"fields":["name","brand","{amenity/bicycle_rental}"],"tags":{"amenity":"bicycle_rental","brand:wikidata":"Q4903630"},"addTags":{"amenity":"bicycle_rental","brand":"BicikeLJ","brand:wikidata":"Q4903630","brand:wikipedia":"en:BicikeLJ","network":"BicikeLJ","network:wikidata":"Q4903630","network:wikipedia":"en:BicikeLJ","operator":"MOL"}},"amenity/cinema/cineplexx-8f1bb5":{"name":"Cineplexx","locationSet":{"include":["al","at","ba","gr","hr","it","me","mk","ro","rs","si","xk"]},"geometry":["point","area"],"matchScore":2,"terms":["cineplexx"],"fields":["name","brand","{amenity/cinema}"],"tags":{"amenity":"cinema","brand:wikidata":"Q873340"},"addTags":{"amenity":"cinema","brand":"Cineplexx","brand:wikidata":"Q873340","brand:wikipedia":"en:Cineplexx Cinemas","name":"Cineplexx"}},"amenity/fuel/as24-3463db":{"name":"AS 24","locationSet":{"include":["at","be","bg","cz","de","dk","es","fr","gb","ge","gr","hr","hu","ie","it","lt","lu","mk","nl","pl","pt","ro","rs","se","si","sk","ua"]},"geometry":["point","area"],"matchScore":2,"terms":["as 24"],"fields":["name","brand","{amenity/fuel}"],"tags":{"amenity":"fuel","brand:wikidata":"Q2819394"},"addTags":{"amenity":"fuel","brand":"AS 24","brand:wikidata":"Q2819394","brand:wikipedia":"fr:AS 24 (entreprise)","hgv":"only","name":"AS 24"}},"amenity/fuel/hoferdiskont-3baa0f":{"name":"Hofer Diskont","locationSet":{"include":["at","si"]},"geometry":["point","area"],"matchScore":2,"terms":["diskont","hofer","hofer diskont"],"fields":["name","brand","{amenity/fuel}"],"tags":{"amenity":"fuel","brand:wikidata":"Q107803455"},"addTags":{"amenity":"fuel","brand":"Hofer Diskont","brand:wikidata":"Q107803455","name":"Hofer Diskont"}},"amenity/ice_cream/llaollao-dd9462":{"name":"Llaollao","locationSet":{"include":["au","ch","cl","co","ec","es","fr","gt","hr","id","iq","kw","ma","my","ph","pt","sa","sg","si","sv","us","vn"]},"geometry":["point","area"],"matchScore":2,"terms":["llaollao"],"tags":{"amenity":"ice_cream","brand:wikidata":"Q12163048"},"addTags":{"amenity":"ice_cream","brand":"Llaollao","brand:wikidata":"Q12163048","brand:wikipedia":"es:Llaollao","cuisine":"frozen_yogurt","name":"Llaollao"}},"amenity/parcel_locker/pspaketomat-8c1608":{"name":"PS Paketomat","locationSet":{"include":["si"]},"geometry":["point","vertex"],"matchScore":2,"terms":["pošta slovenije","ps paketomat"],"reference":{"key":"amenity","value":"parcel_locker"},"tags":{"amenity":"parcel_locker","brand:wikidata":"Q110748273"},"addTags":{"amenity":"parcel_locker","brand":"PS Paketomat","brand:wikidata":"Q110748273","name":"PS Paketomat","operator":"Pošta Slovenije","operator:wikidata":"Q6522631","operator:wikipedia":"sl:Pošta Slovenije","parcel_mail_in":"yes"}},"shop/chemist/dm-64e7ae":{"name":"dm","locationSet":{"include":["at","ba","bg","cz","de","hr","hu","it","mk","ro","rs","si","sk"]},"geometry":["point","area"],"matchScore":2,"terms":["dm","dm drogerie markt"],"tags":{"brand:wikidata":"Q266572","shop":"chemist"},"addTags":{"brand":"dm","brand:wikidata":"Q266572","brand:wikipedia":"en:Dm-drogerie markt","name":"dm","shop":"chemist"}},"shop/clothes/cropp-613e37":{"name":"Cropp","locationSet":{"include":["ba","bg","cz","ee","fi","hr","hu","kz","lt","lv","ro","rs","ru","si","sk","ua"]},"geometry":["point","area"],"matchScore":2,"terms":["cropp"],"tags":{"brand:wikidata":"Q9196793","shop":"clothes"},"addTags":{"brand":"Cropp","brand:wikidata":"Q9196793","brand:wikipedia":"pl:Cropp","name":"Cropp","shop":"clothes"}},"shop/clothes/kik-97626d":{"name":"KiK","locationSet":{"include":["at","cz","de","hr","hu","it","nl","pl","ro","si","sk"]},"geometry":["point","area"],"matchScore":2,"terms":["kik"],"tags":{"brand:wikidata":"Q883965","shop":"clothes"},"addTags":{"brand":"KiK","brand:wikidata":"Q883965","brand:wikipedia":"de:KiK","name":"KiK","shop":"clothes"}},"shop/clothes/nkd-9a8fb8":{"name":"NKD","locationSet":{"include":["at","de","it","si"]},"geometry":["point","area"],"matchScore":2,"terms":["nkd"],"tags":{"brand:wikidata":"Q927272","shop":"clothes"},"addTags":{"brand":"NKD","brand:wikidata":"Q927272","brand:wikipedia":"de:NKD","name":"NKD","shop":"clothes"}},"shop/clothes/ovs-8c6a50":{"name":"OVS","locationSet":{"include":["at","ch","fr","it","si"]},"geometry":["point","area"],"matchScore":2,"terms":["ovs"],"tags":{"brand:wikidata":"Q2042514","shop":"clothes"},"addTags":{"brand":"OVS","brand:wikidata":"Q2042514","brand:wikipedia":"en:OVS (company)","name":"OVS","shop":"clothes"}},"shop/clothes/pepco-98e975":{"name":"Pepco","locationSet":{"include":["bg","cz","ee","hr","hu","it","lt","lv","pl","ro","rs","si","sk"]},"geometry":["point","area"],"matchScore":2,"terms":["pepco"],"tags":{"brand:wikidata":"Q11815580","shop":"clothes"},"addTags":{"brand":"Pepco","brand:wikidata":"Q11815580","brand:wikipedia":"pl:Pepco","name":"Pepco","shop":"clothes"}},"shop/convenience/mercator-eb6d99":{"name":"Mercator","locationSet":{"include":["ba","hr","me","mk","rs","si"]},"geometry":["point","area"],"matchScore":2,"terms":["mercator"],"tags":{"brand:wikidata":"Q738412","shop":"convenience"},"addTags":{"brand":"Mercator","brand:wikidata":"Q738412","brand:wikipedia":"en:Mercator (retail)","name":"Mercator","shop":"convenience"}},"shop/doityourself/bauhaus-6847b5":{"name":"Bauhaus","locationSet":{"include":["at","bg","ch","cz","de","dk","ee","es","fi","hr","hu","is","lu","nl","no","se","si","sk","tr"]},"geometry":["point","area"],"matchScore":2,"terms":["bauhaus"],"tags":{"brand:wikidata":"Q672043","shop":"doityourself"},"addTags":{"brand":"Bauhaus","brand:wikidata":"Q672043","brand:wikipedia":"en:Bauhaus (company)","name":"Bauhaus","shop":"doityourself"}},"shop/doityourself/baumax-bc270a":{"name":"Baumax","locationSet":{"include":["at","cz","si","sk"]},"geometry":["point","area"],"matchScore":2,"terms":["baumax"],"searchable":false,"tags":{"brand:wikidata":"Q310499","shop":"doityourself"},"addTags":{"brand":"Baumax","brand:wikidata":"Q310499","brand:wikipedia":"de:Baumax","name":"Baumax","shop":"doityourself"}},"shop/doityourself/obi-d5381e":{"name":"OBI","locationSet":{"include":["at","ba","ch","cz","de","hu","it","pl","ru","si","sk"]},"geometry":["point","area"],"matchScore":2,"terms":["obi"],"tags":{"brand:wikidata":"Q300518","shop":"doityourself"},"addTags":{"brand":"OBI","brand:wikidata":"Q300518","brand:wikipedia":"de:Obi (Baumarkt)","name":"OBI","shop":"doityourself"}},"shop/furniture/chateaudax-c96b56":{"name":"Chateau d'Ax","locationSet":{"include":["ao","be","ca","ch","cn","de","es","fx","gp","hk","hr","it","ma","mq","mt","mu","mz","pt","re","sg","si","tn","tw","us","vn"]},"geometry":["point","area"],"matchScore":2,"terms":["chateau d'ax"],"tags":{"brand:wikidata":"Q100249791","shop":"furniture"},"addTags":{"brand":"Chateau d'Ax","brand:wikidata":"Q100249791","name":"Chateau d'Ax","shop":"furniture"}},"shop/mobile_phone/a1-5dbae3":{"name":"A1","locationSet":{"include":["at","bg","by","hr","si"]},"geometry":["point","area"],"matchScore":2,"terms":["a1","velcom","velcom|a1","велком"],"tags":{"brand:wikidata":"Q688755","shop":"mobile_phone"},"addTags":{"brand":"A1","brand:wikidata":"Q688755","brand:wikipedia":"en:A1 Telekom Austria Group","name":"A1","shop":"mobile_phone"}},"shop/mobile_phone/telekom-82963b":{"name":"Telekom","locationSet":{"include":["de","hu","ro","si","sk"]},"geometry":["point","area"],"matchScore":2,"terms":["telekom","telekom shop"],"tags":{"brand:wikidata":"Q9396","shop":"mobile_phone"},"addTags":{"brand":"Telekom","brand:wikidata":"Q9396","brand:wikipedia":"en:Deutsche Telekom","name":"Telekom","shop":"mobile_phone"}},"shop/shoes/officeshoes-30afef":{"name":"Office Shoes","locationSet":{"include":["al","ba","cz","hr","hu","me","pl","ro","rs","si","sk"]},"geometry":["point","area"],"matchScore":2,"terms":["office shoes"],"tags":{"brand:wikidata":"Q93946123","shop":"shoes"},"addTags":{"brand":"Office Shoes","brand:wikidata":"Q93946123","name":"Office Shoes","shop":"shoes"}},"shop/sports/hervis-38a747":{"name":"Hervis","locationSet":{"include":["at","cz","de","hr","hu","ro","si"]},"geometry":["point","area"],"matchScore":2,"terms":["hervis","hervis sport","hervis sports"],"tags":{"brand:wikidata":"Q1614816","shop":"sports"},"addTags":{"brand":"Hervis","brand:wikidata":"Q1614816","brand:wikipedia":"de:Hervis","name":"Hervis","shop":"sports"}},"shop/supermarket/eurospin-a66db7":{"name":"EuroSpin","locationSet":{"include":["it","si"]},"geometry":["point","area"],"matchScore":2,"terms":["eurospin"],"tags":{"brand:wikidata":"Q1374674","shop":"supermarket"},"addTags":{"brand":"EuroSpin","brand:wikidata":"Q1374674","brand:wikipedia":"it:Eurospin","name":"EuroSpin","shop":"supermarket"}},"shop/supermarket/hofer-83285c":{"name":"Hofer","locationSet":{"include":["at","si"]},"geometry":["point","area"],"matchScore":2,"terms":["hofer"],"tags":{"brand:wikidata":"Q15815751","shop":"supermarket"},"addTags":{"brand":"Hofer","brand:wikidata":"Q15815751","brand:wikipedia":"de:Hofer KG","name":"Hofer","shop":"supermarket"}},"shop/supermarket/mercator-05bb56":{"name":"Mercator","locationSet":{"include":["ba","hr","me","rs","si"]},"geometry":["point","area"],"matchScore":2,"terms":["mercator"],"tags":{"brand:wikidata":"Q738412","shop":"supermarket"},"addTags":{"brand":"Mercator","brand:wikidata":"Q738412","brand:wikipedia":"en:Mercator (retail)","name":"Mercator","shop":"supermarket"}},"shop/telecommunication/a1-7cd52f":{"name":"A1","locationSet":{"include":["at","bg","by","hr","si"]},"geometry":["point","area"],"matchScore":2,"terms":["a1","velcom","velcom|a1","велком"],"tags":{"brand:wikidata":"Q688755","shop":"telecommunication"},"addTags":{"brand":"A1","brand:wikidata":"Q688755","brand:wikipedia":"en:A1 Telekom Austria Group","name":"A1","shop":"telecommunication"}},"shop/variety_store/tedi-588ea3":{"name":"TEDi","locationSet":{"include":["at","de","es","hr","it","si","sk"]},"geometry":["point","area"],"matchScore":2,"terms":["t\u20acdi","tedi"],"tags":{"brand:wikidata":"Q1364603","shop":"variety_store"},"addTags":{"brand":"TEDi","brand:wikidata":"Q1364603","brand:wikipedia":"de:TEDi","name":"TEDi","shop":"variety_store"}},"amenity/post_box/postaslovenije-68f37b":{"name":"Pošta Slovenije","locationSet":{"include":["si"]},"geometry":["point","vertex"],"matchScore":2,"terms":["pošta slovenije"],"tags":{"amenity":"post_box","operator:wikidata":"Q6522631"},"addTags":{"amenity":"post_box","operator":"Pošta Slovenije","operator:wikidata":"Q6522631","operator:wikipedia":"sl:Pošta Slovenije"}},"amenity/post_office/postaslovenije-0b013e":{"name":"Pošta Slovenije","locationSet":{"include":["si"]},"geometry":["point","area"],"matchScore":2,"terms":["pošta slovenije"],"fields":["name","operator","{amenity/post_office}"],"tags":{"amenity":"post_office","operator:wikidata":"Q6522631"},"addTags":{"amenity":"post_office","operator":"Pošta Slovenije","operator:wikidata":"Q6522631","operator:wikipedia":"sl:Pošta Slovenije"}},"power/plant/energopro-8a4876":{"name":"Energo-Pro","locationSet":{"include":["bg","cz","ge","si","tr"]},"geometry":["area"],"matchScore":2,"terms":["energo-pro"],"tags":{"operator:wikidata":"Q11878927","power":"plant"},"addTags":{"operator":"Energo-Pro","operator:wikidata":"Q11878927","operator:wikipedia":"cs:Energo-Pro","power":"plant"}},"public_transport/platform/bus_point/sadzilina-872609":{"name":"SAD Žilina","locationSet":{"include":["si"]},"geometry":["point","vertex"],"matchScore":2,"terms":["sad žilina"],"reference":{"key":"public_transport","value":"platform"},"tags":{"bus":"yes","network:wikidata":"Q12776241","public_transport":"platform"},"addTags":{"bus":"yes","highway":"bus_stop","network":"SAD Žilina","network:wikidata":"Q12776241","network:wikipedia":"sk:Slovenská autobusová doprava Žilina","public_transport":"platform"}},"type/route/bus/sadzilina-92561f":{"name":"SAD Žilina","locationSet":{"include":["si"]},"geometry":["relation"],"matchScore":2,"terms":["sad žilina"],"reference":{"key":"route","value":"bus"},"tags":{"network:wikidata":"Q12776241","route":"bus","type":"route"},"addTags":{"network":"SAD Žilina","network:wikidata":"Q12776241","network:wikipedia":"sk:Slovenská autobusová doprava Žilina","route":"bus","type":"route"}}}