{"amenity/cinema/cineplexx-8f1bb5":{"name":"Cineplexx","locationSet":{"include":["al","at","ba","gr","hr","it","me","mk","ro","rs","si","xk"]},"geometry":["point","area"],"matchScore":2,"terms":["cineplexx"],"fields":["name","brand","{amenity/cinema}"],"tags":{"amenity":"cinema","brand:wikidata":"Q873340"},"addTags":{"amenity":"cinema","brand":"Cineplexx","brand:wikidata":"Q873340","brand:wikipedia":"en:Cineplexx Cinemas","name":"Cineplexx"}},"amenity/fuel/as24-3463db":{"name":"AS 24","locationSet":{"include":["at","be","bg","cz","de","dk","es","fr","gb","ge","gr","hr","hu","ie","it","lt","lu","mk","nl","pl","pt","ro","rs","se","si","sk","ua"]},"geometry":["point","area"],"matchScore":2,"terms":["as 24"],"fields":["name","brand","{amenity/fuel}"],"tags":{"amenity":"fuel","brand:wikidata":"Q2819394"},"addTags":{"amenity":"fuel","brand":"AS 24","brand:wikidata":"Q2819394","brand:wikipedia":"fr:AS 24 (entreprise)","hgv":"only","name":"AS 24"}},"amenity/fuel/eko-41a515":{"name":"EKO (Ελλάδα)","locationSet":{"include":["bg","cy","gr","me","mk","rs"]},"geometry":["point","area"],"matchScore":2,"terms":["eko","εκο"],"fields":["name","brand","{amenity/fuel}"],"tags":{"amenity":"fuel","brand:wikidata":"Q903198"},"addTags":{"amenity":"fuel","brand":"EKO","brand:wikidata":"Q903198","brand:wikipedia":"el:Ελληνικά Πετρέλαια","name":"EKO"}},"amenity/fuel/c21137-fb1891":{"name":"Макпетрол","locationSet":{"include":["mk"]},"geometry":["point","area"],"matchScore":2,"terms":["макпетрол"],"fields":["name","brand","{amenity/fuel}"],"tags":{"amenity":"fuel","brand:wikidata":"Q1886438"},"addTags":{"amenity":"fuel","brand":"Макпетрол","brand:wikidata":"Q1886438","brand:wikipedia":"en:Makpetrol","name":"Макпетрол"}},"shop/chemist/dm-64e7ae":{"name":"dm","locationSet":{"include":["at","ba","bg","cz","de","hr","hu","it","mk","ro","rs","si","sk"]},"geometry":["point","area"],"matchScore":2,"terms":["dm","dm drogerie markt"],"tags":{"brand:wikidata":"Q266572","shop":"chemist"},"addTags":{"brand":"dm","brand:wikidata":"Q266572","brand:wikipedia":"en:Dm-drogerie markt","name":"dm","shop":"chemist"}},"shop/convenience/mercator-eb6d99":{"name":"Mercator","locationSet":{"include":["ba","hr","me","mk","rs","si"]},"geometry":["point","area"],"matchScore":2,"terms":["mercator"],"tags":{"brand:wikidata":"Q738412","shop":"convenience"},"addTags":{"brand":"Mercator","brand:wikidata":"Q738412","brand:wikipedia":"en:Mercator (retail)","name":"Mercator","shop":"convenience"}},"shop/toys/jumbo-f2bb45":{"name":"Jumbo","locationSet":{"include":["al","ba","cy","gr","md","me","mk","ro","rs","xk"]},"geometry":["point","area"],"matchScore":2,"terms":["jumbo"],"tags":{"brand:wikidata":"Q3562323","shop":"toys"},"addTags":{"brand":"Jumbo","brand:wikidata":"Q3562323","brand:wikipedia":"en:Jumbo S.A.","name":"Jumbo","shop":"toys"}},"amenity/charging_station/evn-12d20d":{"name":"EVN","locationSet":{"include":["mk"]},"geometry":["point","area"],"matchScore":2,"terms":["evn"],"fields":["name","operator","{amenity/charging_station}"],"tags":{"amenity":"charging_station","operator:wikidata":"Q48784884"},"addTags":{"amenity":"charging_station","operator":"EVN","operator:wikidata":"Q48784884","operator:wikipedia":"en:EVN AD Skopje"}},"amenity/hospital/acibadem-007b1e":{"name":"Acıbadem","locationSet":{"include":["bg","de","mk","nl","tr"]},"geometry":["area","point"],"matchScore":2,"terms":["acıbadem"],"fields":["name","operator","{amenity/hospital}"],"reference":{"key":"amenity","value":"hospital"},"tags":{"amenity":"hospital","operator:wikidata":"Q19610384"},"addTags":{"amenity":"hospital","healthcare":"hospital","operator":"Acıbadem","operator:wikidata":"Q19610384","operator:wikipedia":"en:Acıbadem Healthcare Group"}},"amenity/post_box/7fe185-4271bd":{"name":"Македонска Пошта","locationSet":{"include":["mk"]},"geometry":["point","vertex"],"matchScore":2,"terms":["македонска пошта"],"tags":{"amenity":"post_box","operator:wikidata":"Q3209396"},"addTags":{"amenity":"post_box","operator":"Македонска Пошта","operator:wikidata":"Q3209396","operator:wikipedia":"mk:Македонска пошта"}},"amenity/post_office/7fe185-34211e":{"name":"Македонска Пошта","locationSet":{"include":["mk"]},"geometry":["point","area"],"matchScore":2,"terms":["македонска пошта"],"fields":["name","operator","{amenity/post_office}"],"tags":{"amenity":"post_office","operator:wikidata":"Q3209396"},"addTags":{"amenity":"post_office","operator":"Македонска Пошта","operator:wikidata":"Q3209396","operator:wikipedia":"mk:Македонска пошта"}},"power/generator/evn-a4b8ed":{"name":"EVN (North Macedonia)","locationSet":{"include":["mk"]},"geometry":["point","vertex","area"],"matchScore":2,"terms":["evn","evn naturkraft"],"tags":{"operator:wikidata":"Q48784884","power":"generator"},"addTags":{"operator":"EVN","operator:wikidata":"Q48784884","operator:wikipedia":"en:EVN AD Skopje","power":"generator"}},"power/plant/evn-418dda":{"name":"EVN (North Macedonia)","locationSet":{"include":["mk"]},"geometry":["area"],"matchScore":2,"terms":["evn"],"tags":{"operator:wikidata":"Q48784884","power":"plant"},"addTags":{"operator":"EVN","operator:wikidata":"Q48784884","operator:wikipedia":"en:EVN AD Skopje","power":"plant"}}}