{"amenity/ice_cream/jijonenca-f20d3f":{"name":"Jijonenca","locationSet":{"include":["ad","es"]},"geometry":["point","area"],"matchScore":2,"terms":["heladería jijonenca","jijonenca","la jijonenca","la xixonenca","xixonenca"],"tags":{"amenity":"ice_cream","brand:wikidata":"Q109332228"},"addTags":{"amenity":"ice_cream","brand":"Jijonenca","brand:wikidata":"Q109332228","name":"Jijonenca"}},"shop/bakery/santagloria-61d4aa":{"name":"Santagloria","locationSet":{"include":["ad","es"]},"geometry":["point","area"],"matchScore":2,"terms":["santagloria"],"tags":{"brand:wikidata":"Q54606497","shop":"bakery"},"addTags":{"amenity":"cafe","brand":"Santagloria","brand:wikidata":"Q54606497","name":"Santagloria","shop":"bakery"}},"shop/clothes/classicallblacks-b391de":{"name":"Classic All Blacks","locationSet":{"include":["ad","be","fr"]},"geometry":["point","area"],"matchScore":2,"terms":["classic all blacks"],"tags":{"brand:wikidata":"Q102047517","shop":"clothes"},"addTags":{"brand":"Classic All Blacks","brand:wikidata":"Q102047517","name":"Classic All Blacks","shop":"clothes"}},"shop/department_store/printemps-b3d693":{"name":"Printemps","locationSet":{"include":["ad","cn","fr","jp","sa"]},"geometry":["point","area"],"matchScore":2,"terms":["printemps"],"tags":{"brand:wikidata":"Q1535260","shop":"department_store"},"addTags":{"brand":"Printemps","brand:wikidata":"Q1535260","brand:wikipedia":"fr:Printemps (grands magasins)","name":"Printemps","shop":"department_store"}},"shop/perfumery/equivalenza-59ad61":{"name":"Equivalenza","locationSet":{"include":["ad","ao","at","be","ca","cv","de","do","es","fr","gr","gt","ie","it","mx","mz","nl","pe","pt","ro","tn","uk"]},"geometry":["point","area"],"matchScore":2,"terms":["equivalenza"],"tags":{"brand:wikidata":"Q104649798","shop":"perfumery"},"addTags":{"brand":"Equivalenza","brand:wikidata":"Q104649798","name":"Equivalenza","shop":"perfumery"}},"shop/stationery/carlin-fac120":{"name":"Carlin","locationSet":{"include":["ad","es","fr","gq","mx","pt"]},"geometry":["point","area"],"matchScore":2,"terms":["carlin"],"tags":{"brand:wikidata":"Q99762985","shop":"stationery"},"addTags":{"brand":"Carlin","brand:wikidata":"Q99762985","name":"Carlin","shop":"stationery"}},"shop/supermarket/bonarea-774072":{"name":"BonÀrea","locationSet":{"include":["ad","es"]},"geometry":["point","area"],"matchScore":2,"terms":["bonàrea"],"tags":{"brand:wikidata":"Q11924743","shop":"supermarket"},"addTags":{"brand":"BonÀrea","brand:wikidata":"Q11924743","brand:wikipedia":"ca:Grup Alimentari Guissona","name":"BonÀrea","shop":"supermarket"}},"shop/supermarket/caprabo-774072":{"name":"Caprabo","locationSet":{"include":["ad","es"]},"geometry":["point","area"],"matchScore":2,"terms":["caprabo"],"tags":{"brand:wikidata":"Q1980781","shop":"supermarket"},"addTags":{"brand":"Caprabo","brand:wikidata":"Q1980781","brand:wikipedia":"en:Caprabo","name":"Caprabo","shop":"supermarket"}},"shop/supermarket/monoprix-2a24ce":{"name":"Monoprix (France)","locationSet":{"include":["ad","fr"]},"geometry":["point","area"],"matchScore":2,"terms":["monoprix"],"tags":{"brand:wikidata":"Q3321241","shop":"supermarket"},"addTags":{"brand":"Monoprix","brand:wikidata":"Q3321241","brand:wikipedia":"fr:Monoprix (France)","name":"Monoprix","shop":"supermarket"}},"shop/toys/joueclub-913d0c":{"name":"JouéClub","locationSet":{"include":["ad","fr","it","lb","ma","qa"]},"geometry":["point","area"],"matchScore":2,"terms":["jouéclub"],"tags":{"brand:wikidata":"Q3187152","shop":"toys"},"addTags":{"brand":"JouéClub","brand:wikidata":"Q3187152","brand:wikipedia":"fr:JouéClub","name":"JouéClub","shop":"toys"}},"amenity/post_box/mrw-f1512b":{"name":"MRW","locationSet":{"include":["ad","es","gi","pt","ve"]},"geometry":["point","vertex"],"matchScore":2,"terms":["mrw"],"tags":{"amenity":"post_box","operator:wikidata":"Q23767821"},"addTags":{"amenity":"post_box","operator":"MRW","operator:wikidata":"Q23767821","operator:wikipedia":"es:MRW"}},"amenity/post_office/mrw-0a445b":{"name":"MRW","locationSet":{"include":["ad","es","gi","pt","ve"]},"geometry":["point","area"],"matchScore":2,"terms":["mrw"],"fields":["name","operator","{amenity/post_office}"],"tags":{"amenity":"post_office","operator:wikidata":"Q23767821"},"addTags":{"amenity":"post_office","operator":"MRW","operator:wikidata":"Q23767821","operator:wikipedia":"es:MRW"}}}