{"amenity/atm/seb-7527a2":{"name":"SEB","locationSet":{"include":["de","ee","lt","lv","se"]},"geometry":["point","vertex"],"matchScore":2,"terms":["seb"],"tags":{"amenity":"atm","brand:wikidata":"Q975655"},"addTags":{"amenity":"atm","brand":"SEB","brand:wikidata":"Q975655","brand:wikipedia":"en:SEB Group","name":"SEB","operator":"SEB","operator:wikidata":"Q975655","operator:wikipedia":"en:SEB Group"}},"amenity/atm/swedbank-ab2e60":{"name":"Swedbank","locationSet":{"include":["ee","lt","lv","se"]},"geometry":["point","vertex"],"matchScore":2,"terms":["swedbank"],"tags":{"amenity":"atm","brand:wikidata":"Q1145493"},"addTags":{"amenity":"atm","brand":"Swedbank","brand:wikidata":"Q1145493","brand:wikipedia":"en:Swedbank","name":"Swedbank","operator":"Swedbank","operator:wikidata":"Q1145493","operator:wikipedia":"en:Swedbank"}},"amenity/bank/seb-e3cf16":{"name":"SEB","locationSet":{"include":["de","ee","lt","lv","se"]},"geometry":["point","area"],"matchScore":2,"terms":["seb"],"tags":{"amenity":"bank","brand:wikidata":"Q975655"},"addTags":{"amenity":"bank","brand":"SEB","brand:wikidata":"Q975655","brand:wikipedia":"en:SEB Group","name":"SEB"}},"amenity/bank/swedbank-2cd0b2":{"name":"Swedbank","locationSet":{"include":["ee","lt","lv","se"]},"geometry":["point","area"],"matchScore":2,"terms":["swedbank"],"tags":{"amenity":"bank","brand:wikidata":"Q1145493"},"addTags":{"amenity":"bank","brand":"Swedbank","brand:wikidata":"Q1145493","brand:wikipedia":"en:Swedbank","name":"Swedbank"}},"amenity/cinema/multikino-2d7744":{"name":"Multikino","locationSet":{"include":["lt","lv","pl"]},"geometry":["point","area"],"matchScore":2,"terms":["multikino","vue cinemas"],"fields":["name","brand","{amenity/cinema}"],"tags":{"amenity":"cinema","brand:wikidata":"Q1144802"},"addTags":{"amenity":"cinema","brand":"Multikino","brand:wikidata":"Q1144802","brand:wikipedia":"pl:Multikino","name":"Multikino","operator":"Vue Cinemas"}},"amenity/fuel/amic-4797a1":{"name":"Amic","locationSet":{"include":["at","lt","lv","pl","ua"]},"geometry":["point","area"],"matchScore":2,"terms":["amic","amic energy"],"fields":["name","brand","{amenity/fuel}"],"tags":{"amenity":"fuel","brand:wikidata":"Q96047373"},"addTags":{"amenity":"fuel","brand":"Amic","brand:wikidata":"Q96047373","brand:wikipedia":"pl:Amic Energy","name":"Amic"}},"amenity/fuel/viada-86cad0":{"name":"Viada","locationSet":{"include":["lt","lv"]},"geometry":["point","area"],"matchScore":2,"terms":["viada"],"fields":["name","brand","{amenity/fuel}"],"tags":{"amenity":"fuel","brand:wikidata":"Q12663942"},"addTags":{"amenity":"fuel","brand":"Viada","brand:wikidata":"Q12663942","brand:wikipedia":"en:Lukoil Baltija","name":"Viada"}},"amenity/pharmacy/benu-1cd44c":{"name":"Benu","locationSet":{"include":["ch","cz","ee","hu","lt","lv","me","nl","rs","sk"]},"geometry":["point","area"],"matchScore":2,"terms":["benu","benu aptieka","benu vaistinė"],"reference":{"key":"amenity","value":"pharmacy"},"tags":{"amenity":"pharmacy","brand:wikidata":"Q62562792"},"addTags":{"amenity":"pharmacy","brand":"Benu","brand:wikidata":"Q62562792","healthcare":"pharmacy","name":"Benu"}},"amenity/pharmacy/menessaptieka-0eac7e":{"name":"Mēness aptieka","locationSet":{"include":["lv"]},"geometry":["point","area"],"matchScore":2,"terms":["mēness aptieka"],"reference":{"key":"amenity","value":"pharmacy"},"tags":{"amenity":"pharmacy","brand:wikidata":"Q57583051"},"addTags":{"amenity":"pharmacy","brand":"Mēness aptieka","brand:wikidata":"Q57583051","healthcare":"pharmacy","name":"Mēness aptieka"}},"shop/chemist/drogas-1a360a":{"name":"Drogas","locationSet":{"include":["ee","lt","lv"]},"geometry":["point","area"],"matchScore":2,"terms":["drogas"],"tags":{"brand:wikidata":"Q15806753","shop":"chemist"},"addTags":{"brand":"Drogas","brand:wikidata":"Q15806753","brand:wikipedia":"de:Drogas","name":"Drogas","shop":"chemist"}},"shop/clothes/coccodrillo-571709":{"name":"Coccodrillo","locationSet":{"include":["at","bg","by","cz","de","ee","fi","hu","lt","lv","me","pl","ro","rs","ru","sk","ua"]},"geometry":["point","area"],"matchScore":2,"terms":["coccodrillo"],"tags":{"brand:wikidata":"Q9195224","shop":"clothes"},"addTags":{"brand":"Coccodrillo","brand:wikidata":"Q9195224","brand:wikipedia":"pl:Coccodrillo","clothes":"children","name":"Coccodrillo","shop":"clothes"}},"shop/clothes/colloseum-3648e4":{"name":"Colloseum","locationSet":{"include":["at","cz","de","gr","lv","pl","ru","sk"]},"geometry":["point","area"],"matchScore":2,"terms":["colloseum"],"tags":{"brand:wikidata":"Q15794685","shop":"clothes"},"addTags":{"brand":"Colloseum","brand:wikidata":"Q15794685","brand:wikipedia":"de:Colloseum","name":"Colloseum","shop":"clothes"}},"shop/clothes/cropp-613e37":{"name":"Cropp","locationSet":{"include":["ba","bg","cz","ee","fi","hr","hu","kz","lt","lv","ro","rs","ru","si","sk","ua"]},"geometry":["point","area"],"matchScore":2,"terms":["cropp"],"tags":{"brand:wikidata":"Q9196793","shop":"clothes"},"addTags":{"brand":"Cropp","brand:wikidata":"Q9196793","brand:wikipedia":"pl:Cropp","name":"Cropp","shop":"clothes"}},"shop/clothes/pepco-98e975":{"name":"Pepco","locationSet":{"include":["bg","cz","ee","hr","hu","it","lt","lv","pl","ro","rs","si","sk"]},"geometry":["point","area"],"matchScore":2,"terms":["pepco"],"tags":{"brand:wikidata":"Q11815580","shop":"clothes"},"addTags":{"brand":"Pepco","brand:wikidata":"Q11815580","brand:wikipedia":"pl:Pepco","name":"Pepco","shop":"clothes"}},"shop/deli/vomfass-a3c745":{"name":"vomFASS","locationSet":{"include":["at","be","br","ca","ch","cz","de","dk","es","fr","gb","hk","hr","hu","il","it","jp","lv","mx","my","ph","sg","th","us"]},"geometry":["point","area"],"matchScore":2,"terms":["vomfass"],"tags":{"brand:wikidata":"Q2533008","shop":"deli"},"addTags":{"brand":"vomFASS","brand:wikidata":"Q2533008","brand:wikipedia":"de:Vom Fass","name":"vomFASS","shop":"deli"}},"shop/kiosk/narvesen-a42ea8":{"name":"Narvesen","locationSet":{"include":["lt","lv","no"]},"geometry":["point","area"],"matchScore":2,"terms":["narvesen"],"tags":{"brand:wikidata":"Q6514414","shop":"kiosk"},"addTags":{"brand":"Narvesen","brand:wikidata":"Q6514414","brand:wikipedia":"en:Narvesen","name":"Narvesen","shop":"kiosk"}},"shop/optician/fielmann-f003f4":{"name":"fielmann","locationSet":{"include":["at","by","ch","de","it","lt","lu","lv","nl","pl","ru","ua"]},"geometry":["point","area"],"matchScore":2,"terms":["fielmann"],"tags":{"brand:wikidata":"Q457822","shop":"optician"},"addTags":{"brand":"Fielmann","brand:wikidata":"Q457822","brand:wikipedia":"de:Fielmann","name":"Fielmann","shop":"optician"}},"shop/sports/4f-5624eb":{"name":"4F","locationSet":{"include":["cz","de","lt","lv","ro","ru","sk"]},"geometry":["point","area"],"matchScore":2,"terms":["4f"],"tags":{"brand:wikidata":"Q16525801","shop":"sports"},"addTags":{"brand":"4F","brand:wikidata":"Q16525801","brand:wikipedia":"en:4F (company)","name":"4F","shop":"sports"}},"shop/supermarket/maximax-45f6bc":{"name":"Maxima X","locationSet":{"include":["ee","lt","lv"]},"geometry":["point","area"],"matchScore":2,"terms":["maxima x"],"tags":{"brand:wikidata":"Q1881222","shop":"supermarket"},"addTags":{"brand":"Maxima X","brand:wikidata":"Q1881222","brand:wikipedia":"en:Maxima Group","name":"Maxima X","shop":"supermarket"}},"shop/supermarket/maximaxx-48a198":{"name":"Maxima XX","locationSet":{"include":["ee","lt","lv","pl"]},"geometry":["point","area"],"matchScore":2,"terms":["maxima xx"],"tags":{"brand:wikidata":"Q1881222","shop":"supermarket"},"addTags":{"brand":"Maxima XX","brand:wikidata":"Q1881222","brand:wikipedia":"en:Maxima Group","name":"Maxima XX","shop":"supermarket"}},"shop/supermarket/maximaxxx-48a198":{"name":"Maxima XXX","locationSet":{"include":["ee","lt","lv","pl"]},"geometry":["point","area"],"matchScore":2,"terms":["maxima","maxima xxx"],"tags":{"brand:wikidata":"Q1881222","shop":"supermarket"},"addTags":{"brand":"Maxima XXX","brand:wikidata":"Q1881222","brand:wikipedia":"en:Maxima Group","name":"Maxima XXX","shop":"supermarket"}},"shop/supermarket/mego-858077":{"name":"Mego","locationSet":{"include":["lv"]},"geometry":["point","area"],"matchScore":2,"terms":["mego"],"tags":{"brand:wikidata":"Q16363314","shop":"supermarket"},"addTags":{"brand":"Mego","brand:wikidata":"Q16363314","brand:wikipedia":"lv:Mego","name":"Mego","shop":"supermarket"}},"shop/supermarket/rimi-45f6bc":{"name":"Rimi","locationSet":{"include":["ee","lt","lv"]},"geometry":["point","area"],"matchScore":2,"terms":["rimi"],"tags":{"brand:wikidata":"Q3741108","shop":"supermarket"},"addTags":{"brand":"Rimi","brand:wikidata":"Q3741108","brand:wikipedia":"en:Rimi Baltic","name":"Rimi","shop":"supermarket"}},"shop/supermarket/sky-46841a":{"name":"Sky","locationSet":{"include":["de","lv","nl"]},"geometry":["point","area"],"matchScore":2,"terms":["sky"],"tags":{"brand:wikidata":"Q1129779","shop":"supermarket"},"addTags":{"brand":"Sky","brand:wikidata":"Q1129779","brand:wikipedia":"de:Coop eG","name":"Sky","shop":"supermarket"}},"shop/tool_hire/loxam-33fef8":{"name":"Loxam","locationSet":{"include":["ae","be","bh","br","ch","co","cz","de","dk","ee","es","fi","fr","gb","ie","it","kw","lt","lu","lv","ma","nl","no","om","pl","pt","qa","sa","se","sk"]},"geometry":["point","area"],"matchScore":2,"terms":["loxam"],"tags":{"brand:wikidata":"Q3264407","shop":"tool_hire"},"addTags":{"brand":"Loxam","brand:wikidata":"Q3264407","brand:wikipedia":"fr:Loxam","name":"Loxam","shop":"tool_hire"}},"shop/variety_store/flyingtigercopenhagen-37d726":{"name":"Flying Tiger Copenhagen","locationSet":{"include":["at","be","ch","cy","cz","de","dk","ee","es","fi","fr","gb","gr","hu","ie","is","it","jp","kr","lt","lv","mt","nl","no","pl","pt","se","sk"]},"geometry":["point","area"],"matchScore":2,"terms":["flying tiger","flying tiger copenhagen","tgr","tiger"],"tags":{"brand:wikidata":"Q2786319","shop":"variety_store"},"addTags":{"brand":"Flying Tiger Copenhagen","brand:wikidata":"Q2786319","brand:wikipedia":"en:Flying Tiger Copenhagen","name":"Flying Tiger Copenhagen","shop":"variety_store","short_name":"Flying Tiger"}},"amenity/post_box/latvijaspasts-7d10cc":{"name":"Latvijas Pasts","locationSet":{"include":["lv"]},"geometry":["point","vertex"],"matchScore":2,"terms":["latvijas pasts"],"tags":{"amenity":"post_box","operator:wikidata":"Q1807088"},"addTags":{"amenity":"post_box","operator":"Latvijas Pasts","operator:wikidata":"Q1807088","operator:wikipedia":"lv:Latvijas Pasts"}},"amenity/post_office/latvijaspasts-52791c":{"name":"Latvijas Pasts","locationSet":{"include":["lv"]},"geometry":["point","area"],"matchScore":2,"terms":["latvijas pasts"],"fields":["name","operator","{amenity/post_office}"],"tags":{"amenity":"post_office","operator:wikidata":"Q1807088"},"addTags":{"amenity":"post_office","operator":"Latvijas Pasts","operator:wikidata":"Q1807088","operator:wikipedia":"lv:Latvijas Pasts"}},"power/line/augstspriegumatikls-e41140":{"name":"Augstsprieguma tīkls","locationSet":{"include":["lv"]},"geometry":["line"],"matchScore":2,"terms":["as \u201eaugstsprieguma tīkls\u201c","augstsprieguma tīkls"],"tags":{"operator:wikidata":"Q16822050","power":"line"},"addTags":{"operator":"Augstsprieguma tīkls","operator:wikidata":"Q16822050","operator:wikipedia":"lv:Augstsprieguma tīkls","power":"line"}},"power/line/sadalestikls-e41140":{"name":"Sadales tīkls","locationSet":{"include":["lv"]},"geometry":["line"],"matchScore":2,"terms":["as \"sadales tīkls\"","sadales tīkls"],"tags":{"operator:wikidata":"Q21011154","power":"line"},"addTags":{"operator":"Sadales tīkls","operator:wikidata":"Q21011154","operator:wikipedia":"lv:Sadales tīkls","power":"line"}},"power/minor_line/augstspriegumatikls-a6ab81":{"name":"Augstsprieguma tīkls","locationSet":{"include":["lv"]},"geometry":["line"],"matchScore":2,"terms":["as \u201eaugstsprieguma tīkls\u201c","augstsprieguma tīkls"],"tags":{"operator:wikidata":"Q16822050","power":"minor_line"},"addTags":{"operator":"Augstsprieguma tīkls","operator:wikidata":"Q16822050","operator:wikipedia":"lv:Augstsprieguma tīkls","power":"minor_line"}},"power/minor_line/sadalestikls-a6ab81":{"name":"Sadales tīkls","locationSet":{"include":["lv"]},"geometry":["line"],"matchScore":2,"terms":["as \"sadales tīkls\"","sadales tīkls"],"tags":{"operator:wikidata":"Q21011154","power":"minor_line"},"addTags":{"operator":"Sadales tīkls","operator:wikidata":"Q21011154","operator:wikipedia":"lv:Sadales tīkls","power":"minor_line"}},"power/pole/augstspriegumatikls-b1384e":{"name":"Augstsprieguma tīkls","locationSet":{"include":["lv"]},"geometry":["point","vertex"],"matchScore":2,"terms":["as \u201eaugstsprieguma tīkls\u201c","augstsprieguma tīkls"],"tags":{"operator:wikidata":"Q16822050","power":"pole"},"addTags":{"operator":"Augstsprieguma tīkls","operator:wikidata":"Q16822050","operator:wikipedia":"lv:Augstsprieguma tīkls","power":"pole"}},"power/pole/sadalestikls-b1384e":{"name":"Sadales tīkls","locationSet":{"include":["lv"]},"geometry":["point","vertex"],"matchScore":2,"terms":["as \"sadales tīkls\"","sadales tīkls"],"tags":{"operator:wikidata":"Q21011154","power":"pole"},"addTags":{"operator":"Sadales tīkls","operator:wikidata":"Q21011154","operator:wikipedia":"lv:Sadales tīkls","power":"pole"}},"power/substation/augstspriegumatikls-b57901":{"name":"Augstsprieguma tīkls","locationSet":{"include":["lv"]},"geometry":["area","point"],"matchScore":2,"terms":["as \u201eaugstsprieguma tīkls\u201c","augstsprieguma tīkls"],"tags":{"operator:wikidata":"Q16822050","power":"substation"},"addTags":{"operator":"Augstsprieguma tīkls","operator:wikidata":"Q16822050","operator:wikipedia":"lv:Augstsprieguma tīkls","power":"substation"}},"power/substation/sadalestikls-b57901":{"name":"Sadales tīkls","locationSet":{"include":["lv"]},"geometry":["area","point"],"matchScore":2,"terms":["as \"sadales tīkls\"","sadales tīkls"],"tags":{"operator:wikidata":"Q21011154","power":"substation"},"addTags":{"operator":"Sadales tīkls","operator:wikidata":"Q21011154","operator:wikipedia":"lv:Sadales tīkls","power":"substation"}},"power/tower/augstspriegumatikls-ea2dda":{"name":"Augstsprieguma tīkls","locationSet":{"include":["lv"]},"geometry":["point","vertex"],"matchScore":2,"terms":["as \u201eaugstsprieguma tīkls\u201c","augstsprieguma tīkls"],"tags":{"operator:wikidata":"Q16822050","power":"tower"},"addTags":{"operator":"Augstsprieguma tīkls","operator:wikidata":"Q16822050","operator:wikipedia":"lv:Augstsprieguma tīkls","power":"tower"}},"power/tower/sadalestikls-ea2dda":{"name":"Sadales tīkls","locationSet":{"include":["lv"]},"geometry":["point","vertex"],"matchScore":2,"terms":["as \"sadales tīkls\"","sadales tīkls"],"tags":{"operator:wikidata":"Q21011154","power":"tower"},"addTags":{"operator":"Sadales tīkls","operator:wikidata":"Q21011154","operator:wikipedia":"lv:Sadales tīkls","power":"tower"}},"power/transformer/augstspriegumatikls-79b2b7":{"name":"Augstsprieguma tīkls","locationSet":{"include":["lv"]},"geometry":["point","vertex"],"matchScore":2,"terms":["as \u201eaugstsprieguma tīkls\u201c","augstsprieguma tīkls"],"tags":{"operator:wikidata":"Q16822050","power":"transformer"},"addTags":{"operator":"Augstsprieguma tīkls","operator:wikidata":"Q16822050","operator:wikipedia":"lv:Augstsprieguma tīkls","power":"transformer"}},"power/transformer/sadalestikls-79b2b7":{"name":"Sadales tīkls","locationSet":{"include":["lv"]},"geometry":["point","vertex"],"matchScore":2,"terms":["as \"sadales tīkls\"","sadales tīkls"],"tags":{"operator:wikidata":"Q21011154","power":"transformer"},"addTags":{"operator":"Sadales tīkls","operator:wikidata":"Q21011154","operator:wikipedia":"lv:Sadales tīkls","power":"transformer"}},"type/route/power/augstspriegumatikls-9b994c":{"name":"Augstsprieguma tīkls","locationSet":{"include":["lv"]},"geometry":["relation"],"matchScore":2,"terms":["as \u201eaugstsprieguma tīkls\u201c","augstsprieguma tīkls"],"reference":{"key":"route","value":"power"},"tags":{"operator:wikidata":"Q16822050","route":"power","type":"route"},"addTags":{"operator":"Augstsprieguma tīkls","operator:wikidata":"Q16822050","operator:wikipedia":"lv:Augstsprieguma tīkls","route":"power","type":"route"}}}