{"amenity/atm/raiffeisenbank-038d28":{"name":"Raiffeisen Bank (Shqipëri)","locationSet":{"include":["al"]},"geometry":["point","vertex"],"matchScore":2,"terms":["raiffeisen","raiffeisen bank"],"tags":{"amenity":"atm","brand:wikidata":"Q2127541"},"addTags":{"amenity":"atm","brand":"Raiffeisen Bank","brand:wikidata":"Q2127541","brand:wikipedia":"sq:Raiffeisen Bank Shqipëri","name":"Raiffeisen Bank","operator":"Raiffeisen Bank","operator:wikidata":"Q2127541","operator:wikipedia":"sq:Raiffeisen Bank Shqipëri"}},"amenity/bank/raiffeisenbank-c53f64":{"name":"Raiffeisen Bank (Shqipëri)","locationSet":{"include":["al"]},"geometry":["point","area"],"matchScore":2,"terms":["raiffeisen","raiffeisen bank"],"tags":{"amenity":"bank","brand:wikidata":"Q2127541"},"addTags":{"amenity":"bank","brand":"Raiffeisen Bank","brand:wikidata":"Q2127541","brand:wikipedia":"sq:Raiffeisen Bank Shqipëri","name":"Raiffeisen Bank"}},"amenity/cinema/cineplexx-8f1bb5":{"name":"Cineplexx","locationSet":{"include":["al","at","ba","gr","hr","it","me","mk","ro","rs","si","xk"]},"geometry":["point","area"],"matchScore":2,"terms":["cineplexx"],"fields":["name","brand","{amenity/cinema}"],"tags":{"amenity":"cinema","brand:wikidata":"Q873340"},"addTags":{"amenity":"cinema","brand":"Cineplexx","brand:wikidata":"Q873340","brand:wikipedia":"en:Cineplexx Cinemas","name":"Cineplexx"}},"amenity/fuel/alpet-97866d":{"name":"Alpet","locationSet":{"include":["al","tr"]},"geometry":["point","area"],"matchScore":2,"terms":["alpet"],"fields":["name","brand","{amenity/fuel}"],"tags":{"amenity":"fuel","brand:wikidata":"Q62131561"},"addTags":{"amenity":"fuel","brand":"Alpet","brand:wikidata":"Q62131561","name":"Alpet"}},"amenity/school/maplebear-89c128":{"name":"Maple Bear","locationSet":{"include":["ae","al","ar","au","bd","bg","br","ca","cn","gt","hk","hr","in","ke","kr","lk","ma","mx","my","np","om","pe","ph","py","ro","rs","sg","th","tk","ua","us","vn"]},"geometry":["area","point"],"matchScore":2,"terms":["maple bear"],"fields":["name","brand","{amenity/school}"],"tags":{"amenity":"school","brand:wikidata":"Q10324823"},"addTags":{"amenity":"school","brand":"Maple Bear","brand:wikidata":"Q10324823","brand:wikipedia":"pt:Maple Bear","name":"Maple Bear","operator:type":"private"}},"shop/shoes/flo-ad2d82":{"name":"FLO","locationSet":{"include":["al","tr"]},"geometry":["point","area"],"matchScore":2,"terms":["flo"],"tags":{"brand:wikidata":"Q61994802","shop":"shoes"},"addTags":{"brand":"FLO","brand:wikidata":"Q61994802","name":"FLO","shop":"shoes"}},"shop/shoes/officeshoes-30afef":{"name":"Office Shoes","locationSet":{"include":["al","ba","cz","hr","hu","me","pl","ro","rs","si","sk"]},"geometry":["point","area"],"matchScore":2,"terms":["office shoes"],"tags":{"brand:wikidata":"Q93946123","shop":"shoes"},"addTags":{"brand":"Office Shoes","brand:wikidata":"Q93946123","name":"Office Shoes","shop":"shoes"}},"shop/supermarket/bigmarket-e8341b":{"name":"Big Market","locationSet":{"include":["al"]},"geometry":["point","area"],"matchScore":2,"terms":["big market"],"tags":{"brand:wikidata":"Q28135235","shop":"supermarket"},"addTags":{"brand":"Big Market","brand:wikidata":"Q28135235","brand:wikipedia":"sq:Big Market","name":"Big Market","shop":"supermarket"}},"shop/supermarket/conad-06d4eb":{"name":"Conad","locationSet":{"include":["al","it"]},"geometry":["point","area"],"matchScore":2,"terms":["conad"],"tags":{"brand:wikidata":"Q639075","shop":"supermarket"},"addTags":{"brand":"Conad","brand:wikidata":"Q639075","brand:wikipedia":"it:Conad","name":"Conad","shop":"supermarket"}},"shop/toys/jumbo-f2bb45":{"name":"Jumbo","locationSet":{"include":["al","ba","cy","gr","md","me","mk","ro","rs","xk"]},"geometry":["point","area"],"matchScore":2,"terms":["jumbo"],"tags":{"brand:wikidata":"Q3562323","shop":"toys"},"addTags":{"brand":"Jumbo","brand:wikidata":"Q3562323","brand:wikipedia":"en:Jumbo S.A.","name":"Jumbo","shop":"toys"}},"amenity/post_box/postashqiptare-5d3454":{"name":"Posta Shqiptare","locationSet":{"include":["al"]},"geometry":["point","vertex"],"matchScore":2,"terms":["posta shqiptare"],"tags":{"amenity":"post_box","operator:wikidata":"Q1334419"},"addTags":{"amenity":"post_box","operator":"Posta Shqiptare","operator:wikidata":"Q1334419","operator:wikipedia":"sq:Posta Shqiptare"}},"amenity/post_office/postashqiptare-6d9f6a":{"name":"Posta Shqiptare","locationSet":{"include":["al"]},"geometry":["point","area"],"matchScore":2,"terms":["posta shqiptare"],"fields":["name","operator","{amenity/post_office}"],"tags":{"amenity":"post_office","operator:wikidata":"Q1334419"},"addTags":{"amenity":"post_office","operator":"Posta Shqiptare","operator:wikidata":"Q1334419","operator:wikipedia":"sq:Posta Shqiptare"}}}