{"amenity/atm/addikobank-bd7eed":{"name":"Addiko Bank","locationSet":{"include":["ba","hr","me","rs","si"]},"geometry":["point","vertex"],"matchScore":2,"terms":["addiko bank"],"tags":{"amenity":"atm","brand:wikidata":"Q27926559"},"addTags":{"amenity":"atm","brand":"Addiko Bank","brand:wikidata":"Q27926559","brand:wikipedia":"en:Addiko Bank","name":"Addiko Bank","operator":"Addiko Bank","operator:wikidata":"Q27926559","operator:wikipedia":"en:Addiko Bank"}},"amenity/atm/bancaintesa-66eaa8":{"name":"Banca Intesa","locationSet":{"include":["it","rs"]},"geometry":["point","vertex"],"matchScore":2,"terms":["banca intesa"],"searchable":false,"tags":{"amenity":"atm","brand:wikidata":"Q647092"},"addTags":{"amenity":"atm","brand":"Banca Intesa","brand:wikidata":"Q647092","brand:wikipedia":"en:Banca Intesa","name":"Banca Intesa","operator":"Banca Intesa","operator:wikidata":"Q647092","operator:wikipedia":"en:Banca Intesa"}},"amenity/atm/erstebank-1343ca":{"name":"Erste Bank","locationSet":{"include":["at","hr","hu","rs"]},"geometry":["point","vertex"],"matchScore":2,"terms":["erste bank"],"tags":{"amenity":"atm","brand:wikidata":"Q696867"},"addTags":{"amenity":"atm","brand":"Erste Bank","brand:wikidata":"Q696867","brand:wikipedia":"de:Erste Bank","name":"Erste Bank","operator":"Erste Bank","operator:wikidata":"Q696867","operator:wikipedia":"de:Erste Bank"}},"amenity/atm/eurobank-4fcc55":{"name":"Eurobank (Србија)","locationSet":{"include":["rs"]},"geometry":["point","vertex"],"matchScore":2,"terms":["eurobank"],"tags":{"amenity":"atm","brand:wikidata":"Q5411684"},"addTags":{"amenity":"atm","brand":"Eurobank","brand:wikidata":"Q5411684","brand:wikipedia":"sr:Eurobanka","name":"Eurobank","operator":"Eurobank","operator:wikidata":"Q5411684","operator:wikipedia":"sr:Eurobanka"}},"amenity/atm/komercijalnabanka-afa18c":{"name":"Komercijalna banka","locationSet":{"include":["ba","me","rs"]},"geometry":["point","vertex"],"matchScore":2,"terms":["komercijalna banka"],"tags":{"amenity":"atm","brand:wikidata":"Q1536320"},"addTags":{"amenity":"atm","brand":"Komercijalna banka","brand:wikidata":"Q1536320","brand:wikipedia":"en:Komercijalna banka","name":"Komercijalna banka","operator":"Komercijalna banka","operator:wikidata":"Q1536320","operator:wikipedia":"en:Komercijalna banka"}},"amenity/atm/raiffeisenbank-4fcc55":{"name":"Raiffeisen banka Srbije","locationSet":{"include":["rs"]},"geometry":["point","vertex"],"matchScore":2,"terms":["raiffeisen","raiffeisen bank"],"tags":{"amenity":"atm","brand:wikidata":"Q7283807"},"addTags":{"amenity":"atm","brand":"Raiffeisen bank","brand:wikidata":"Q7283807","brand:wikipedia":"en:Raiffeisen Bank (Serbia)","name":"Raiffeisen bank","operator":"Raiffeisen bank","operator:wikidata":"Q7283807","operator:wikipedia":"en:Raiffeisen Bank (Serbia)"}},"amenity/bank/addikobank-975383":{"name":"Addiko Bank","locationSet":{"include":["ba","hr","me","rs","si"]},"geometry":["point","area"],"matchScore":2,"terms":["addiko bank"],"tags":{"amenity":"bank","brand:wikidata":"Q27926559"},"addTags":{"amenity":"bank","brand":"Addiko Bank","brand:wikidata":"Q27926559","brand:wikipedia":"en:Addiko Bank","name":"Addiko Bank"}},"amenity/bank/bancaintesa-4a6838":{"name":"Banca Intesa","locationSet":{"include":["it","rs"]},"geometry":["point","area"],"matchScore":2,"terms":["banca intesa"],"searchable":false,"tags":{"amenity":"bank","brand:wikidata":"Q647092"},"addTags":{"amenity":"bank","brand":"Banca Intesa","brand:wikidata":"Q647092","brand:wikipedia":"en:Banca Intesa","name":"Banca Intesa"}},"amenity/bank/erstebank-d01b30":{"name":"Erste Bank","locationSet":{"include":["at","hr","hu","rs"]},"geometry":["point","area"],"matchScore":2,"terms":["erste bank"],"tags":{"amenity":"bank","brand:wikidata":"Q696867"},"addTags":{"amenity":"bank","brand":"Erste Bank","brand:wikidata":"Q696867","brand:wikipedia":"de:Erste Bank","name":"Erste Bank"}},"amenity/bank/eurobank-e9ea45":{"name":"Eurobank (Србија)","locationSet":{"include":["rs"]},"geometry":["point","area"],"matchScore":2,"terms":["eurobank"],"tags":{"amenity":"bank","brand:wikidata":"Q5411684"},"addTags":{"amenity":"bank","brand":"Eurobank","brand:wikidata":"Q5411684","brand:wikipedia":"sr:Eurobanka","name":"Eurobank"}},"amenity/bank/komercijalnabanka-0c399e":{"name":"Komercijalna banka","locationSet":{"include":["ba","me","rs"]},"geometry":["point","area"],"matchScore":2,"terms":["komercijalna banka"],"tags":{"amenity":"bank","brand:wikidata":"Q1536320"},"addTags":{"amenity":"bank","brand":"Komercijalna banka","brand:wikidata":"Q1536320","brand:wikipedia":"en:Komercijalna banka","name":"Komercijalna banka"}},"amenity/bank/raiffeisenbank-e9ea45":{"name":"Raiffeisen banka Srbije","locationSet":{"include":["rs"]},"geometry":["point","area"],"matchScore":2,"terms":["raiffeisen","raiffeisen bank"],"tags":{"amenity":"bank","brand:wikidata":"Q7283807"},"addTags":{"amenity":"bank","brand":"Raiffeisen bank","brand:wikidata":"Q7283807","brand:wikipedia":"en:Raiffeisen Bank (Serbia)","name":"Raiffeisen bank"}},"amenity/cinema/cineplexx-8f1bb5":{"name":"Cineplexx","locationSet":{"include":["al","at","ba","gr","hr","it","me","mk","ro","rs","si","xk"]},"geometry":["point","area"],"matchScore":2,"terms":["cineplexx"],"fields":["name","brand","{amenity/cinema}"],"tags":{"amenity":"cinema","brand:wikidata":"Q873340"},"addTags":{"amenity":"cinema","brand":"Cineplexx","brand:wikidata":"Q873340","brand:wikipedia":"en:Cineplexx Cinemas","name":"Cineplexx"}},"amenity/cinema/cinestar-a7029a":{"name":"CineStar","locationSet":{"include":["ba","cz","de","hr","it","rs"]},"geometry":["point","area"],"matchScore":2,"terms":["cinestar"],"fields":["name","brand","{amenity/cinema}"],"tags":{"amenity":"cinema","brand:wikidata":"Q321889"},"addTags":{"amenity":"cinema","brand":"CineStar","brand:wikidata":"Q321889","brand:wikipedia":"de:Cinestar","name":"CineStar"}},"amenity/fuel/as24-3463db":{"name":"AS 24","locationSet":{"include":["at","be","bg","cz","de","dk","es","fr","gb","ge","gr","hr","hu","ie","it","lt","lu","mk","nl","pl","pt","ro","rs","se","si","sk","ua"]},"geometry":["point","area"],"matchScore":2,"terms":["as 24"],"fields":["name","brand","{amenity/fuel}"],"tags":{"amenity":"fuel","brand:wikidata":"Q2819394"},"addTags":{"amenity":"fuel","brand":"AS 24","brand:wikidata":"Q2819394","brand:wikipedia":"fr:AS 24 (entreprise)","hgv":"only","name":"AS 24"}},"amenity/fuel/avia-e0aaf8":{"name":"Avia","locationSet":{"include":["at","be","bg","ch","cz","de","es","fr","hu","it","nl","pl","pt","rs","ua"]},"geometry":["point","area"],"matchScore":2,"terms":["avia","station avia"],"fields":["name","brand","{amenity/fuel}"],"tags":{"amenity":"fuel","brand:wikidata":"Q300147"},"addTags":{"amenity":"fuel","brand":"Avia","brand:wikidata":"Q300147","brand:wikipedia":"de:Avia International","name":"Avia"}},"amenity/fuel/eko-41a515":{"name":"EKO (Ελλάδα)","locationSet":{"include":["bg","cy","gr","me","mk","rs"]},"geometry":["point","area"],"matchScore":2,"terms":["eko","εκο"],"fields":["name","brand","{amenity/fuel}"],"tags":{"amenity":"fuel","brand:wikidata":"Q903198"},"addTags":{"amenity":"fuel","brand":"EKO","brand:wikidata":"Q903198","brand:wikipedia":"el:Ελληνικά Πετρέλαια","name":"EKO"}},"amenity/fuel/637ba4-7131c1":{"name":"ОМВ","locationSet":{"include":["bg","rs"]},"geometry":["point","area"],"matchScore":2,"terms":["омв"],"fields":["name","brand","{amenity/fuel}"],"tags":{"amenity":"fuel","brand:wikidata":"Q168238"},"addTags":{"amenity":"fuel","brand":"ОМВ","brand:wikidata":"Q168238","brand:wikipedia":"en:OMV","name":"ОМВ"}},"amenity/pharmacy/benu-1cd44c":{"name":"Benu","locationSet":{"include":["ch","cz","ee","hu","lt","lv","me","nl","rs","sk"]},"geometry":["point","area"],"matchScore":2,"terms":["benu","benu aptieka","benu vaistinė"],"reference":{"key":"amenity","value":"pharmacy"},"tags":{"amenity":"pharmacy","brand:wikidata":"Q62562792"},"addTags":{"amenity":"pharmacy","brand":"Benu","brand:wikidata":"Q62562792","healthcare":"pharmacy","name":"Benu"}},"amenity/pharmacy/drmax-d40f7b":{"name":"Dr. Max","locationSet":{"include":["cz","it","pl","ro","rs","sk"]},"geometry":["point","area"],"matchScore":2,"terms":["dr. max"],"reference":{"key":"amenity","value":"pharmacy"},"tags":{"amenity":"pharmacy","brand:wikidata":"Q56317371"},"addTags":{"amenity":"pharmacy","brand":"Dr. Max","brand:wikidata":"Q56317371","brand:wikipedia":"fr:Dr.Max","healthcare":"pharmacy","name":"Dr. Max"}},"amenity/school/maplebear-89c128":{"name":"Maple Bear","locationSet":{"include":["ae","al","ar","au","bd","bg","br","ca","cn","gt","hk","hr","in","ke","kr","lk","ma","mx","my","np","om","pe","ph","py","ro","rs","sg","th","tk","ua","us","vn"]},"geometry":["area","point"],"matchScore":2,"terms":["maple bear"],"fields":["name","brand","{amenity/school}"],"tags":{"amenity":"school","brand:wikidata":"Q10324823"},"addTags":{"amenity":"school","brand":"Maple Bear","brand:wikidata":"Q10324823","brand:wikipedia":"pt:Maple Bear","name":"Maple Bear","operator:type":"private"}},"shop/chemist/dm-64e7ae":{"name":"dm","locationSet":{"include":["at","ba","bg","cz","de","hr","hu","it","mk","ro","rs","si","sk"]},"geometry":["point","area"],"matchScore":2,"terms":["dm","dm drogerie markt"],"tags":{"brand:wikidata":"Q266572","shop":"chemist"},"addTags":{"brand":"dm","brand:wikidata":"Q266572","brand:wikipedia":"en:Dm-drogerie markt","name":"dm","shop":"chemist"}},"shop/clothes/coccodrillo-571709":{"name":"Coccodrillo","locationSet":{"include":["at","bg","by","cz","de","ee","fi","hu","lt","lv","me","pl","ro","rs","ru","sk","ua"]},"geometry":["point","area"],"matchScore":2,"terms":["coccodrillo"],"tags":{"brand:wikidata":"Q9195224","shop":"clothes"},"addTags":{"brand":"Coccodrillo","brand:wikidata":"Q9195224","brand:wikipedia":"pl:Coccodrillo","clothes":"children","name":"Coccodrillo","shop":"clothes"}},"shop/clothes/cropp-613e37":{"name":"Cropp","locationSet":{"include":["ba","bg","cz","ee","fi","hr","hu","kz","lt","lv","ro","rs","ru","si","sk","ua"]},"geometry":["point","area"],"matchScore":2,"terms":["cropp"],"tags":{"brand:wikidata":"Q9196793","shop":"clothes"},"addTags":{"brand":"Cropp","brand:wikidata":"Q9196793","brand:wikipedia":"pl:Cropp","name":"Cropp","shop":"clothes"}},"shop/clothes/pepco-98e975":{"name":"Pepco","locationSet":{"include":["bg","cz","ee","hr","hu","it","lt","lv","pl","ro","rs","si","sk"]},"geometry":["point","area"],"matchScore":2,"terms":["pepco"],"tags":{"brand:wikidata":"Q11815580","shop":"clothes"},"addTags":{"brand":"Pepco","brand:wikidata":"Q11815580","brand:wikipedia":"pl:Pepco","name":"Pepco","shop":"clothes"}},"shop/convenience/avia-3fdfc9":{"name":"Avia","locationSet":{"include":["at","be","bg","ch","cz","de","es","fr","hu","it","nl","pl","pt","rs","ua"]},"geometry":["point","area"],"matchScore":2,"terms":["avia"],"tags":{"brand:wikidata":"Q300147","shop":"convenience"},"addTags":{"brand":"Avia","brand:wikidata":"Q300147","brand:wikipedia":"de:Avia International","name":"Avia","shop":"convenience"}},"shop/convenience/konzum-442b6e":{"name":"Konzum (Balkans)","locationSet":{"include":["ba","hr","rs"]},"geometry":["point","area"],"matchScore":2,"terms":["konzum"],"tags":{"brand:wikidata":"Q518563","shop":"convenience"},"addTags":{"brand":"Konzum","brand:wikidata":"Q518563","brand:wikipedia":"hr:Konzum","name":"Konzum","shop":"convenience"}},"shop/convenience/mercator-eb6d99":{"name":"Mercator","locationSet":{"include":["ba","hr","me","mk","rs","si"]},"geometry":["point","area"],"matchScore":2,"terms":["mercator"],"tags":{"brand:wikidata":"Q738412","shop":"convenience"},"addTags":{"brand":"Mercator","brand:wikidata":"Q738412","brand:wikipedia":"en:Mercator (retail)","name":"Mercator","shop":"convenience"}},"shop/mobile_phone/a1-6945ea":{"name":"A1 (Srbija)","locationSet":{"include":["rs"]},"geometry":["point","area"],"matchScore":2,"terms":["a1 srbija","vip mobile","а1 србија","вип мобајл"],"tags":{"brand:wikidata":"Q826186","shop":"mobile_phone"},"addTags":{"brand":"A1 Srbija","brand:sr":"А1 Србија","brand:wikidata":"Q826186","brand:wikipedia":"sr:А1 Србија","name":"A1","shop":"mobile_phone"}},"shop/mobile_phone/a1centar-6945ea":{"name":"A1 centar","locationSet":{"include":["rs"]},"geometry":["point","area"],"matchScore":2,"terms":["a1 centar","а1 србија"],"tags":{"brand:wikidata":"Q826186","shop":"mobile_phone"},"addTags":{"brand":"A1 centar","brand:sr":"А1 Србија","brand:wikidata":"Q826186","brand:wikipedia":"sr:А1 Србија","name":"A1 centar","shop":"mobile_phone"}},"shop/mobile_phone/a1prodajnomesto-6945ea":{"name":"A1 prodajno mesto","locationSet":{"include":["rs"]},"geometry":["point","area"],"matchScore":2,"terms":["a1 prodajno mesto","а1 србија"],"tags":{"brand:wikidata":"Q826186","shop":"mobile_phone"},"addTags":{"brand":"A1 prodajno mesto","brand:sr":"А1 Србија","brand:wikidata":"Q826186","brand:wikipedia":"sr:А1 Србија","name":"A1 prodajno mesto","shop":"mobile_phone"}},"shop/shoes/officeshoes-30afef":{"name":"Office Shoes","locationSet":{"include":["al","ba","cz","hr","hu","me","pl","ro","rs","si","sk"]},"geometry":["point","area"],"matchScore":2,"terms":["office shoes"],"tags":{"brand:wikidata":"Q93946123","shop":"shoes"},"addTags":{"brand":"Office Shoes","brand:wikidata":"Q93946123","name":"Office Shoes","shop":"shoes"}},"shop/sports/planetasport-d20c83":{"name":"Planeta Sport","locationSet":{"include":["rs"]},"geometry":["point","area"],"matchScore":2,"terms":["planeta","planeta sport"],"tags":{"brand:wikidata":"Q72193528","shop":"sports"},"addTags":{"brand":"Planeta Sport","brand:en":"Planeta Sport","brand:rs":"Planeta Sport","brand:wikidata":"Q72193528","name":"Planeta Sport","shop":"sports"}},"shop/supermarket/idea-b83687":{"name":"IDEA","locationSet":{"include":["rs"]},"geometry":["point","area"],"matchScore":2,"terms":["idea"],"tags":{"brand:wikidata":"Q23461622","shop":"supermarket"},"addTags":{"brand":"IDEA","brand:wikidata":"Q23461622","brand:wikipedia":"en:Idea (supermarkets)","name":"IDEA","shop":"supermarket"}},"shop/supermarket/konzum-0956c9":{"name":"Konzum (Balkans)","locationSet":{"include":["ba","hr","rs"]},"geometry":["point","area"],"matchScore":2,"terms":["konzum"],"tags":{"brand:wikidata":"Q518563","shop":"supermarket"},"addTags":{"brand":"Konzum","brand:wikidata":"Q518563","brand:wikipedia":"hr:Konzum","name":"Konzum","shop":"supermarket"}},"shop/supermarket/mercator-05bb56":{"name":"Mercator","locationSet":{"include":["ba","hr","me","rs","si"]},"geometry":["point","area"],"matchScore":2,"terms":["mercator"],"tags":{"brand:wikidata":"Q738412","shop":"supermarket"},"addTags":{"brand":"Mercator","brand:wikidata":"Q738412","brand:wikipedia":"en:Mercator (retail)","name":"Mercator","shop":"supermarket"}},"shop/supermarket/maxi-b83687":{"name":"Макси","locationSet":{"include":["rs"]},"geometry":["point","area"],"matchScore":2,"terms":["maxi","макси"],"tags":{"brand:wikidata":"Q6795490","shop":"supermarket"},"addTags":{"brand":"Макси","brand:en":"Maxi","brand:wikidata":"Q6795490","brand:wikipedia":"sr:Maxi (супермаркет)","name":"Макси","name:en":"Maxi","shop":"supermarket"}},"shop/toys/jumbo-f2bb45":{"name":"Jumbo","locationSet":{"include":["al","ba","cy","gr","md","me","mk","ro","rs","xk"]},"geometry":["point","area"],"matchScore":2,"terms":["jumbo"],"tags":{"brand:wikidata":"Q3562323","shop":"toys"},"addTags":{"brand":"Jumbo","brand:wikidata":"Q3562323","brand:wikipedia":"en:Jumbo S.A.","name":"Jumbo","shop":"toys"}},"amenity/post_box/848860-776b1b":{"name":"Пошта Србије","locationSet":{"include":["rs"]},"geometry":["point","vertex"],"matchScore":2,"terms":["пошта србије"],"tags":{"amenity":"post_box","operator:wikidata":"Q769311"},"addTags":{"amenity":"post_box","operator":"Пошта Србије","operator:wikidata":"Q769311","operator:wikipedia":"sr:Pošta Srbije"}},"amenity/post_office/848860-6e4d23":{"name":"Пошта Србије","locationSet":{"include":["rs"]},"geometry":["point","area"],"matchScore":2,"terms":["пошта србије"],"fields":["name","operator","{amenity/post_office}"],"tags":{"amenity":"post_office","operator:wikidata":"Q769311"},"addTags":{"amenity":"post_office","operator":"Пошта Србије","operator:wikidata":"Q769311","operator:wikipedia":"sr:Pošta Srbije"}},"power/generator/mkfintelwind-a37acc":{"name":"MK Fintel Wind","locationSet":{"include":["rs"]},"geometry":["point","vertex","area"],"matchScore":2,"terms":["mk fintel wind"],"tags":{"operator:wikidata":"Q28402825","power":"generator"},"addTags":{"operator":"MK Fintel Wind","operator:wikidata":"Q28402825","operator:wikipedia":"en:MK Fintel Wind","power":"generator"}},"power/plant/3ea478-b5970c":{"name":"Електропривреда Србије","locationSet":{"include":["rs"]},"geometry":["area"],"matchScore":2,"terms":["електропривреда србије"],"tags":{"operator:wikidata":"Q1327532","power":"plant"},"addTags":{"operator":"Електропривреда Србије","operator:wikidata":"Q1327532","operator:wikipedia":"sr:Електропривреда Србије","power":"plant"}},"power/substation/ems-0be006":{"name":"EMS","locationSet":{"include":["rs"]},"geometry":["area","point"],"matchScore":2,"terms":["ems"],"tags":{"operator:wikidata":"Q18250047","power":"substation"},"addTags":{"operator":"EMS","operator:wikidata":"Q18250047","operator:wikipedia":"en:Elektromreža Srbije","power":"substation"}},"power/transformer/ems-c7be96":{"name":"EMS","locationSet":{"include":["rs"]},"geometry":["point","vertex"],"matchScore":2,"terms":["ems"],"tags":{"operator:wikidata":"Q18250047","power":"transformer"},"addTags":{"operator":"EMS","operator:wikidata":"Q18250047","operator:wikipedia":"en:Elektromreža Srbije","power":"transformer"}}}