{"leisure/fitness_centre/worldclass-eed3df":{"name":"World Class (Ísland)","locationSet":{"include":["is"]},"geometry":["point","area"],"matchScore":2,"terms":["world class"],"tags":{"brand:wikidata":"Q102350789","leisure":"fitness_centre"},"addTags":{"brand":"World Class","brand:wikidata":"Q102350789","leisure":"fitness_centre","name":"World Class"}},"shop/car/karma-40d0fc":{"name":"Karma","locationSet":{"include":["be","ca","cn","ec","es","fr","il","is","nl","pa","se","us"]},"geometry":["point","area"],"matchScore":2,"terms":["karma automotive"],"fields":["name","brand","{shop/car}"],"tags":{"brand:wikidata":"Q22671741","shop":"car"},"addTags":{"brand":"Karma Automotive","brand:wikidata":"Q22671741","brand:wikipedia":"en:Karma Automotive","name":"Karma","shop":"car"}},"shop/convenience/1011-ead397":{"name":"10-11","locationSet":{"include":["is"]},"geometry":["point","area"],"matchScore":2,"terms":["10-11"],"tags":{"brand:wikidata":"Q65336720","shop":"convenience"},"addTags":{"brand":"10-11","brand:wikidata":"Q65336720","brand:wikipedia":"is:10-11","name":"10-11","shop":"convenience"}},"shop/doityourself/bauhaus-6847b5":{"name":"Bauhaus","locationSet":{"include":["at","bg","ch","cz","de","dk","ee","es","fi","hr","hu","is","lu","nl","no","se","si","sk","tr"]},"geometry":["point","area"],"matchScore":2,"terms":["bauhaus"],"tags":{"brand:wikidata":"Q672043","shop":"doityourself"},"addTags":{"brand":"Bauhaus","brand:wikidata":"Q672043","brand:wikipedia":"en:Bauhaus (company)","name":"Bauhaus","shop":"doityourself"}},"shop/furniture/habitat-4d9d78":{"name":"Habitat (non-UK)","locationSet":{"include":["be","de","es","gr","is","lu","no","pt","tr"]},"geometry":["point","area"],"matchScore":2,"terms":["habitat"],"tags":{"brand:wikidata":"Q689059","shop":"furniture"},"addTags":{"brand":"Habitat","brand:wikidata":"Q689059","brand:wikipedia":"en:Habitat (retailer)","name":"Habitat","shop":"furniture"}},"shop/supermarket/bonus-eba859":{"name":"Bónus","locationSet":{"include":["fo","is"]},"geometry":["point","area"],"matchScore":2,"terms":["bónus"],"tags":{"brand:wikidata":"Q3480158","shop":"supermarket"},"addTags":{"brand":"Bónus","brand:wikidata":"Q3480158","brand:wikipedia":"en:Bónus","name":"Bónus","shop":"supermarket"}},"shop/supermarket/kronan-0c58a2":{"name":"Krónan","locationSet":{"include":["is"]},"geometry":["point","area"],"matchScore":2,"terms":["krónan"],"tags":{"brand:wikidata":"Q16419327","shop":"supermarket"},"addTags":{"brand":"Krónan","brand:wikidata":"Q16419327","brand:wikipedia":"is:Krónan (verslun)","name":"Krónan","shop":"supermarket"}},"shop/supermarket/netto-0c58a2":{"name":"Nettó (Ísland)","locationSet":{"include":["is"]},"geometry":["point","area"],"matchScore":2,"terms":["nettó"],"tags":{"brand:wikidata":"Q67205962","shop":"supermarket"},"addTags":{"brand":"Nettó","brand:wikidata":"Q67205962","name":"Nettó","shop":"supermarket"}},"shop/variety_store/flyingtigercopenhagen-37d726":{"name":"Flying Tiger Copenhagen","locationSet":{"include":["at","be","ch","cy","cz","de","dk","ee","es","fi","fr","gb","gr","hu","ie","is","it","jp","kr","lt","lv","mt","nl","no","pl","pt","se","sk"]},"geometry":["point","area"],"matchScore":2,"terms":["flying tiger","flying tiger copenhagen","tgr","tiger"],"tags":{"brand:wikidata":"Q2786319","shop":"variety_store"},"addTags":{"brand":"Flying Tiger Copenhagen","brand:wikidata":"Q2786319","brand:wikipedia":"en:Flying Tiger Copenhagen","name":"Flying Tiger Copenhagen","shop":"variety_store","short_name":"Flying Tiger"}},"amenity/car_sharing/zipcar-aa2ec2":{"name":"Zipcar","locationSet":{"include":["ca","cr","gb","is","tr","tw","us"]},"geometry":["point","area"],"matchScore":2,"terms":["zipcar"],"tags":{"amenity":"car_sharing","operator:wikidata":"Q1069924"},"addTags":{"amenity":"car_sharing","operator":"Zipcar","operator:wikidata":"Q1069924","operator:wikipedia":"en:Zipcar"}},"amenity/charging_station/orkanatturunnar-8fcd5a":{"name":"Orka náttúrunnar","locationSet":{"include":["is"]},"geometry":["point","area"],"matchScore":2,"terms":["orka náttúrunnar"],"fields":["name","operator","{amenity/charging_station}"],"tags":{"amenity":"charging_station","operator:wikidata":"Q25051792"},"addTags":{"amenity":"charging_station","operator":"Orka náttúrunnar","operator:wikidata":"Q25051792","operator:wikipedia":"en:Orka náttúrunnar"}},"amenity/post_box/islandspostur-af7f84":{"name":"Íslandspóstur","locationSet":{"include":["is"]},"geometry":["point","vertex"],"matchScore":2,"terms":["íslandspóstur"],"tags":{"amenity":"post_box","operator:wikidata":"Q291809"},"addTags":{"amenity":"post_box","operator":"Íslandspóstur","operator:wikidata":"Q291809","operator:wikipedia":"is:Íslandspóstur"}},"amenity/post_office/islandspostur-b0beaf":{"name":"Íslandspóstur","locationSet":{"include":["is"]},"geometry":["point","area"],"matchScore":2,"terms":["íslandspóstur"],"fields":["name","operator","{amenity/post_office}"],"tags":{"amenity":"post_office","operator:wikidata":"Q291809"},"addTags":{"amenity":"post_office","operator":"Íslandspóstur","operator:wikidata":"Q291809","operator:wikipedia":"is:Íslandspóstur"}},"power/generator/innergex-661e7e":{"name":"Innergex","locationSet":{"include":["ca","fx","is","us"]},"geometry":["point","vertex","area"],"matchScore":2,"terms":["innergex"],"tags":{"operator:wikidata":"Q3151374","power":"generator"},"addTags":{"operator":"Innergex","operator:wikidata":"Q3151374","operator:wikipedia":"en:Innergex Renewable Energy","power":"generator"}},"public_transport/platform/bus_point/straetohofudhborgarsvaedhidh-ae34e2":{"name":"Strætó Höfuðborgarsvæðið","locationSet":{"include":["is"]},"geometry":["point","vertex"],"matchScore":2,"terms":["strætó höfuðborgarsvæðið"],"reference":{"key":"public_transport","value":"platform"},"tags":{"bus":"yes","network:wikidata":"Q966621","public_transport":"platform"},"addTags":{"bus":"yes","highway":"bus_stop","network":"Strætó Höfuðborgarsvæðið","network:wikidata":"Q966621","network:wikipedia":"is:Strætó bs.","public_transport":"platform"}},"type/route/bus/straetohofudhborgarsvaedhidh-87023c":{"name":"Strætó Höfuðborgarsvæðið","locationSet":{"include":["is"]},"geometry":["relation"],"matchScore":2,"terms":["strætó höfuðborgarsvæðið"],"reference":{"key":"route","value":"bus"},"tags":{"network:wikidata":"Q966621","route":"bus","type":"route"},"addTags":{"network":"Strætó Höfuðborgarsvæðið","network:wikidata":"Q966621","network:wikipedia":"is:Strætó bs.","route":"bus","type":"route"}}}