{"amenity/atm/moldindconbank-7a75e5":{"name":"Moldindconbank","locationSet":{"include":["md"]},"geometry":["point","vertex"],"matchScore":2,"terms":["moldindconbank"],"tags":{"amenity":"atm","brand:wikidata":"Q20429441"},"addTags":{"amenity":"atm","brand":"Moldindconbank","brand:wikidata":"Q20429441","brand:wikipedia":"ro:Moldindconbank","name":"Moldindconbank","operator":"Moldindconbank","operator:wikidata":"Q20429441","operator:wikipedia":"ro:Moldindconbank"}},"amenity/atm/moldovaagroindbank-7a75e5":{"name":"Moldova Agroindbank","locationSet":{"include":["md"]},"geometry":["point","vertex"],"matchScore":2,"terms":["moldova agroindbank"],"tags":{"amenity":"atm","brand:wikidata":"Q4044440"},"addTags":{"amenity":"atm","brand":"Moldova Agroindbank","brand:wikidata":"Q4044440","brand:wikipedia":"ro:Maib","name":"Moldova Agroindbank","operator":"Moldova Agroindbank","operator:wikidata":"Q4044440","operator:wikipedia":"ro:Maib"}},"amenity/atm/pridnestroviansavingsbank-7a75e5":{"name":"Приднестровский Сбербанк","locationSet":{"include":["md"]},"geometry":["point","vertex"],"matchScore":2,"terms":["pridnestrovian savings bank","приднестровский cбербанк","приднестровский сбербанк"],"tags":{"amenity":"atm","brand:wikidata":"Q4378147"},"addTags":{"amenity":"atm","brand":"Приднестровский Сбербанк","brand:en":"Pridnestrovian Savings Bank","brand:ru":"Приднестровский Сбербанк","brand:wikidata":"Q4378147","brand:wikipedia":"ru:Приднестровский Сбербанк","name":"Приднестровский Сбербанк","name:en":"Pridnestrovian Savings Bank","name:ru":"Приднестровский Сбербанк","operator":"Приднестровский Сбербанк","operator:wikidata":"Q4378147","operator:wikipedia":"ru:Приднестровский Сбербанк"}},"amenity/bank/moldindconbank-59fea4":{"name":"Moldindconbank","locationSet":{"include":["md"]},"geometry":["point","area"],"matchScore":2,"terms":["moldindconbank"],"tags":{"amenity":"bank","brand:wikidata":"Q20429441"},"addTags":{"amenity":"bank","brand":"Moldindconbank","brand:wikidata":"Q20429441","brand:wikipedia":"ro:Moldindconbank","name":"Moldindconbank"}},"amenity/bank/moldovaagroindbank-59fea4":{"name":"Moldova Agroindbank","locationSet":{"include":["md"]},"geometry":["point","area"],"matchScore":2,"terms":["moldova agroindbank"],"tags":{"amenity":"bank","brand:wikidata":"Q4044440"},"addTags":{"amenity":"bank","brand":"Moldova Agroindbank","brand:wikidata":"Q4044440","brand:wikipedia":"ro:Maib","name":"Moldova Agroindbank"}},"amenity/bank/pridnestroviansavingsbank-59fea4":{"name":"Приднестровский Сбербанк","locationSet":{"include":["md"]},"geometry":["point","area"],"matchScore":2,"terms":["pridnestrovian savings bank","приднестровский cбербанк","приднестровский сбербанк"],"tags":{"amenity":"bank","brand:wikidata":"Q4378147"},"addTags":{"amenity":"bank","brand":"Приднестровский Сбербанк","brand:en":"Pridnestrovian Savings Bank","brand:ru":"Приднестровский Сбербанк","brand:wikidata":"Q4378147","brand:wikipedia":"ru:Приднестровский Сбербанк","name":"Приднестровский Сбербанк","name:en":"Pridnestrovian Savings Bank","name:ru":"Приднестровский Сбербанк"}},"amenity/fuel/tirexpetrol-66cb39":{"name":"Tirex Petrol","locationSet":{"include":["md"]},"geometry":["point","area"],"matchScore":2,"terms":["tirex petrol"],"fields":["name","brand","{amenity/fuel}"],"tags":{"amenity":"fuel","brand:wikidata":"Q20432218"},"addTags":{"amenity":"fuel","brand":"Tirex Petrol","brand:wikidata":"Q20432218","brand:wikipedia":"ro:Tirex Petrol","name":"Tirex Petrol"}},"amenity/pharmacy/felicia-52cb11":{"name":"Felicia","locationSet":{"include":["md"]},"geometry":["point","area"],"matchScore":2,"terms":["felicia"],"reference":{"key":"amenity","value":"pharmacy"},"tags":{"amenity":"pharmacy","brand:wikidata":"Q62564805"},"addTags":{"amenity":"pharmacy","brand":"Felicia","brand:wikidata":"Q62564805","healthcare":"pharmacy","name":"Felicia"}},"shop/bakery/fornetti-0c6f37":{"name":"Fornetti","locationSet":{"include":["bg","cz","hr","hu","md","pl","ro","sk","ua"]},"geometry":["point","area"],"matchScore":2,"terms":["fornetti"],"tags":{"brand:wikidata":"Q1003020","shop":"bakery"},"addTags":{"brand":"Fornetti","brand:wikidata":"Q1003020","brand:wikipedia":"hu:Fornetti","name":"Fornetti","shop":"bakery"}},"shop/mobile_phone/77c523-104cfb":{"name":"Алло","locationSet":{"include":["md","ua"]},"geometry":["point","area"],"matchScore":2,"terms":["алло"],"tags":{"brand:wikidata":"Q18683057","shop":"mobile_phone"},"addTags":{"brand":"Алло","brand:wikidata":"Q18683057","brand:wikipedia":"uk:Алло (компанія)","name":"Алло","shop":"mobile_phone"}},"shop/supermarket/linella-cb8836":{"name":"Linella","locationSet":{"include":["md"]},"geometry":["point","area"],"matchScore":2,"terms":["linella"],"tags":{"brand:wikidata":"Q61085990","shop":"supermarket"},"addTags":{"brand":"Linella","brand:wikidata":"Q61085990","brand:wikipedia":"ro:Linella","name":"Linella","shop":"supermarket"}},"shop/toys/jumbo-f2bb45":{"name":"Jumbo","locationSet":{"include":["al","ba","cy","gr","md","me","mk","ro","rs","xk"]},"geometry":["point","area"],"matchScore":2,"terms":["jumbo"],"tags":{"brand:wikidata":"Q3562323","shop":"toys"},"addTags":{"brand":"Jumbo","brand:wikidata":"Q3562323","brand:wikipedia":"en:Jumbo S.A.","name":"Jumbo","shop":"toys"}},"amenity/post_box/postamoldovei-833d92":{"name":"Poșta Moldovei","locationSet":{"include":["md"]},"geometry":["point","vertex"],"matchScore":2,"terms":["poșta moldovei"],"tags":{"amenity":"post_box","operator:wikidata":"Q2085731"},"addTags":{"amenity":"post_box","operator":"Poșta Moldovei","operator:wikidata":"Q2085731","operator:wikipedia":"en:Poșta Moldovei"}},"amenity/post_box/transnistriapost-833d92":{"name":"ГУП Почта Приднестровья","locationSet":{"include":["md"]},"geometry":["point","vertex"],"matchScore":2,"terms":["transnistria post","гуп почта приднестровья"],"tags":{"amenity":"post_box","operator:wikidata":"Q4375351"},"addTags":{"amenity":"post_box","operator":"ГУП Почта Приднестровья","operator:en":"Transnistria Post","operator:ru":"ГУП Почта Приднестровья","operator:wikidata":"Q4375351","operator:wikipedia":"ru:Почта Приднестровья"}},"amenity/post_office/postamoldovei-48c390":{"name":"Poșta Moldovei","locationSet":{"include":["md"]},"geometry":["point","area"],"matchScore":2,"terms":["poșta moldovei"],"fields":["name","operator","{amenity/post_office}"],"tags":{"amenity":"post_office","operator:wikidata":"Q2085731"},"addTags":{"amenity":"post_office","operator":"Poșta Moldovei","operator:wikidata":"Q2085731","operator:wikipedia":"en:Poșta Moldovei"}},"amenity/post_office/transnistriapost-48c390":{"name":"ГУП Почта Приднестровья","locationSet":{"include":["md"]},"geometry":["point","area"],"matchScore":2,"terms":["transnistria post","гуп почта приднестровья"],"fields":["name","operator","{amenity/post_office}"],"tags":{"amenity":"post_office","operator:wikidata":"Q4375351"},"addTags":{"amenity":"post_office","operator":"ГУП Почта Приднестровья","operator:en":"Transnistria Post","operator:ru":"ГУП Почта Приднестровья","operator:wikidata":"Q4375351","operator:wikipedia":"ru:Почта Приднестровья"}}}