{"amenity/atm/rbs-1729b5":{"name":"RBS","locationSet":{"include":["gb","je"]},"geometry":["point","vertex"],"matchScore":2,"terms":["rbs","royal bank of scotland"],"tags":{"amenity":"atm","brand:wikidata":"Q160126"},"addTags":{"amenity":"atm","brand":"RBS","brand:wikidata":"Q160126","brand:wikipedia":"en:Royal Bank of Scotland","name":"RBS","official_name":"Royal Bank of Scotland","operator":"RBS","operator:wikidata":"Q160126","operator:wikipedia":"en:Royal Bank of Scotland"}},"amenity/bank/rbs-23753a":{"name":"RBS","locationSet":{"include":["gb","je"]},"geometry":["point","area"],"matchScore":2,"terms":["rbs","royal bank of scotland"],"tags":{"amenity":"bank","brand:wikidata":"Q160126"},"addTags":{"amenity":"bank","brand":"RBS","brand:wikidata":"Q160126","brand:wikipedia":"en:Royal Bank of Scotland","name":"RBS","official_name":"Royal Bank of Scotland"}},"shop/books/waterstones-3a34ca":{"name":"Waterstones","locationSet":{"include":["be","gb","ie","je","nl"]},"geometry":["point","area"],"matchScore":2,"terms":["waterstones"],"tags":{"brand:wikidata":"Q151779","shop":"books"},"addTags":{"brand":"Waterstones","brand:wikidata":"Q151779","brand:wikipedia":"en:Waterstones","name":"Waterstones","shop":"books"}},"shop/clothes/mossbros-b36645":{"name":"Moss Bros","locationSet":{"include":["ae","gb","gg","je"]},"geometry":["point","area"],"matchScore":2,"terms":["moss bros"],"tags":{"brand:wikidata":"Q6916538","shop":"clothes"},"addTags":{"brand":"Moss Bros","brand:wikidata":"Q6916538","brand:wikipedia":"en:Moss Bros Group","clothes":"men","name":"Moss Bros","shop":"clothes"}},"shop/convenience/cooperativeenroute-d9d9cb":{"name":"Co-operative En Route","locationSet":{"include":["gg","je"]},"geometry":["point","area"],"matchScore":2,"terms":["channel islands co-operative society","co-operative en route"],"tags":{"brand:wikidata":"Q107594899","shop":"convenience"},"addTags":{"brand":"Co-operative En Route","brand:wikidata":"Q107594899","name":"Co-operative En Route","operator":"Channel Islands Co-operative Society","operator:wikidata":"Q108129104","shop":"convenience"}},"shop/convenience/cooperativelocale-d9d9cb":{"name":"Co-operative Locale","locationSet":{"include":["gg","je"]},"geometry":["point","area"],"matchScore":2,"terms":["channel islands co-operative society","co-operative locale"],"tags":{"brand:wikidata":"Q107594899","shop":"convenience"},"addTags":{"brand":"Co-operative Locale","brand:wikidata":"Q107594899","name":"Co-operative Locale","operator":"Channel Islands Co-operative Society","operator:wikidata":"Q5072404","operator:wikipedia":"en:Channel Islands Co-operative Society","shop":"convenience"}},"shop/convenience/littlewaitrose-126aa8":{"name":"Little Waitrose","locationSet":{"include":["gb","je"]},"geometry":["point","area"],"matchScore":2,"terms":["little waitrose"],"tags":{"brand:wikidata":"Q771734","shop":"convenience"},"addTags":{"brand":"Little Waitrose","brand:wikidata":"Q771734","brand:wikipedia":"en:Waitrose","name":"Little Waitrose","shop":"convenience"}},"shop/convenience/morrisonsdaily-d9d9cb":{"name":"Morrisons Daily (Channel Islands)","locationSet":{"include":["gg","je"]},"geometry":["point","area"],"matchScore":2,"terms":["morrisons daily","sandpiperci"],"tags":{"brand:wikidata":"Q99752411","shop":"convenience"},"addTags":{"brand":"Morrisons Daily","brand:wikidata":"Q99752411","name":"Morrisons Daily","operator":"SandpiperCI","shop":"convenience"}},"shop/convenience/waitrose-126aa8":{"name":"Waitrose","locationSet":{"include":["gb","je"]},"geometry":["point","area"],"matchScore":2,"terms":["waitrose"],"tags":{"brand:wikidata":"Q771734","shop":"convenience"},"addTags":{"brand":"Waitrose","brand:wikidata":"Q771734","brand:wikipedia":"en:Waitrose","name":"Waitrose","shop":"convenience"}},"shop/garden_centre/bluediamondgardencentres-02ecdf":{"name":"Blue Diamond Garden Centres","locationSet":{"include":["gb","gg","je"]},"geometry":["point","area"],"matchScore":2,"terms":["blue diamond garden centres"],"fields":["name","brand","{shop/garden_centre}"],"tags":{"brand:wikidata":"Q81097207","shop":"garden_centre"},"addTags":{"brand":"Blue Diamond Garden Centres","brand:wikidata":"Q81097207","shop":"garden_centre"}},"shop/supermarket/cooperativegrandmarche-a048a6":{"name":"Co-operative Grand Marché","locationSet":{"include":["gg","je"]},"geometry":["point","area"],"matchScore":2,"terms":["channel islands co-operative society","co-operative grand marché"],"tags":{"brand:wikidata":"Q107594917","shop":"supermarket"},"addTags":{"brand":"Co-operative Grand Marché","brand:wikidata":"Q107594917","name":"Co-operative Grand Marché","operator":"Channel Islands Co-operative Society","operator:wikidata":"Q5072404","operator:wikipedia":"en:Channel Islands Co-operative Society","shop":"supermarket"}},"shop/supermarket/waitrose-dd6d3a":{"name":"Waitrose","locationSet":{"include":["gb","je"]},"geometry":["point","area"],"matchScore":2,"terms":["waitrose","waitrose & partners"],"tags":{"brand:wikidata":"Q771734","shop":"supermarket"},"addTags":{"brand":"Waitrose","brand:wikidata":"Q771734","brand:wikipedia":"en:Waitrose","name":"Waitrose","official_name":"Waitrose & Partners","shop":"supermarket"}},"shop/toys/theentertainer-6f40da":{"name":"The Entertainer","locationSet":{"include":["gb","je"]},"geometry":["point","area"],"matchScore":2,"terms":["the entertainer"],"tags":{"brand:wikidata":"Q7732289","shop":"toys"},"addTags":{"brand":"The Entertainer","brand:wikidata":"Q7732289","brand:wikipedia":"en:The Entertainer (retailer)","name":"The Entertainer","shop":"toys"}},"amenity/post_box/jerseypost-9f43cc":{"name":"Jersey Post","locationSet":{"include":["je"]},"geometry":["point","vertex"],"matchScore":2,"terms":["jersey post"],"tags":{"amenity":"post_box","operator:wikidata":"Q6184914"},"addTags":{"amenity":"post_box","operator":"Jersey Post","operator:wikidata":"Q6184914","operator:wikipedia":"en:Jersey Post"}},"amenity/post_office/jerseypost-984d36":{"name":"Jersey Post","locationSet":{"include":["je"]},"geometry":["point","area"],"matchScore":2,"terms":["jersey post"],"fields":["name","operator","{amenity/post_office}"],"tags":{"amenity":"post_office","operator:wikidata":"Q6184914"},"addTags":{"amenity":"post_office","operator":"Jersey Post","operator:wikidata":"Q6184914","operator:wikipedia":"en:Jersey Post"}}}