{"amenity/fast_food/oakberryacaibowls-df46eb":{"name":"Oakberry Açaí bowls","locationSet":{"include":["ae","au","bh","br","ch","cl","co","de","es","gr","hr","il","mt","mx","pe","pt","py","sa","th","us"]},"geometry":["point","area"],"matchScore":2,"terms":["oakberry açaí bowls"],"tags":{"amenity":"fast_food","brand:wikidata":"Q104870840"},"addTags":{"amenity":"fast_food","brand":"Oakberry Açaí bowls","brand:wikidata":"Q104870840","cuisine":"açaí","name":"Oakberry Açaí bowls","takeaway":"yes"}},"amenity/ice_cream/amorino-6cf168":{"name":"Amorino","locationSet":{"include":["ae","ch","cz","de","es","fr","gb","gr","ie","it","lu","ma","mt","mx","nc","pt","qa","re","us"]},"geometry":["point","area"],"matchScore":2,"terms":["amorino"],"tags":{"amenity":"ice_cream","brand:wikidata":"Q2843884"},"addTags":{"amenity":"ice_cream","brand":"Amorino","brand:wikidata":"Q2843884","brand:wikipedia":"fr:Amorino","name":"Amorino"}},"shop/bakery/milliescookies-376142":{"name":"Millie's Cookies","locationSet":{"include":["de","eg","fr","gb","hk","in","mt"]},"geometry":["point","area"],"matchScore":2,"terms":["millie's cookies"],"tags":{"brand:wikidata":"Q1935533","shop":"bakery"},"addTags":{"brand":"Millie's Cookies","brand:wikidata":"Q1935533","brand:wikipedia":"en:Millie's Cookies","name":"Millie's Cookies","shop":"bakery"}},"shop/bookmaker/tipico-7054e9":{"name":"Tipico","locationSet":{"include":["at","co","de","gi","hr","mt"]},"geometry":["point","area"],"matchScore":2,"terms":["tipico"],"tags":{"brand:wikidata":"Q15851003","shop":"bookmaker"},"addTags":{"brand":"Tipico","brand:wikidata":"Q15851003","brand:wikipedia":"en:Tipico","name":"Tipico","shop":"bookmaker"}},"shop/furniture/chateaudax-c96b56":{"name":"Chateau d'Ax","locationSet":{"include":["ao","be","ca","ch","cn","de","es","fx","gp","hk","hr","it","ma","mq","mt","mu","mz","pt","re","sg","si","tn","tw","us","vn"]},"geometry":["point","area"],"matchScore":2,"terms":["chateau d'ax"],"tags":{"brand:wikidata":"Q100249791","shop":"furniture"},"addTags":{"brand":"Chateau d'Ax","brand:wikidata":"Q100249791","name":"Chateau d'Ax","shop":"furniture"}},"shop/furniture/poltronesofa-488b55":{"name":"Poltronesofà","locationSet":{"include":["be","ch","cy","fr","it","mt"]},"geometry":["point","area"],"matchScore":2,"terms":["poltronesofà"],"tags":{"brand:wikidata":"Q80833069","shop":"furniture"},"addTags":{"brand":"Poltronesofà","brand:wikidata":"Q80833069","name":"Poltronesofà","shop":"furniture"}},"shop/interior_decoration/butlers-85b078":{"name":"Butlers","locationSet":{"include":["at","ch","de","es","gb","hu","lu","mt","ua"]},"geometry":["point","area"],"matchScore":2,"terms":["butlers"],"tags":{"brand:wikidata":"Q1017972","shop":"interior_decoration"},"addTags":{"brand":"Butlers","brand:wikidata":"Q1017972","brand:wikipedia":"de:Butlers (Unternehmen)","name":"Butlers","shop":"interior_decoration"}},"shop/variety_store/flyingtigercopenhagen-37d726":{"name":"Flying Tiger Copenhagen","locationSet":{"include":["at","be","ch","cy","cz","de","dk","ee","es","fi","fr","gb","gr","hu","ie","is","it","jp","kr","lt","lv","mt","nl","no","pl","pt","se","sk"]},"geometry":["point","area"],"matchScore":2,"terms":["flying tiger","flying tiger copenhagen","tgr","tiger"],"tags":{"brand:wikidata":"Q2786319","shop":"variety_store"},"addTags":{"brand":"Flying Tiger Copenhagen","brand:wikidata":"Q2786319","brand:wikipedia":"en:Flying Tiger Copenhagen","name":"Flying Tiger Copenhagen","shop":"variety_store","short_name":"Flying Tiger"}},"amenity/police/pulizijatamalta-67380b":{"name":"Pulizija ta' Malta","locationSet":{"include":["mt"]},"geometry":["point","area"],"matchScore":2,"terms":["pulizija ta' malta"],"tags":{"amenity":"police","operator:wikidata":"Q2413538"},"addTags":{"amenity":"police","operator":"Pulizija ta' Malta","operator:wikidata":"Q2413538","operator:wikipedia":"en:Malta Police Force"}},"power/substation/enemalta-79e49d":{"name":"Enemalta","locationSet":{"include":["mt"]},"geometry":["area","point"],"matchScore":2,"terms":["enemalta"],"tags":{"operator:wikidata":"Q1341101","power":"substation"},"addTags":{"operator":"Enemalta","operator:wikidata":"Q1341101","operator:wikipedia":"en:Enemalta","power":"substation"}},"power/transformer/enemalta-e6482f":{"name":"Enemalta","locationSet":{"include":["mt"]},"geometry":["point","vertex"],"matchScore":2,"terms":["enemalta"],"tags":{"operator:wikidata":"Q1341101","power":"transformer"},"addTags":{"operator":"Enemalta","operator:wikidata":"Q1341101","operator:wikipedia":"en:Enemalta","power":"transformer"}}}